id,address,businessName,photoURL,city,state,url,reviewCount,stars,longitude,latitude
1,"Penn Student Health Services Bldg3535 Market StPowelton VillagePhiladelphia, PA 19104",Irie Caribbean Grill,http://s3-media1.ak.yelpcdn.com/assets/2/www/img/924a6444ca6c/gfx/blank_biz_medium.gif,Philadelphia,PA,http://www.yelp.com/biz/irie-caribbean-grill-philadelphia,2,3,-75.193906,39.956432
2,"3513 Lancaster AvePowelton VillagePhiladelphia, PA 19104",Rana Halal Cuisine,http://s3-media1.ak.yelpcdn.com/assets/2/www/img/924a6444ca6c/gfx/blank_biz_medium.gif,Philadelphia,PA,http://www.yelp.com/biz/rana-halal-cuisine-philadelphia,2,2,-75.1928223,39.9582825
3,"3025 Walnut StUniversity CityPhiladelphia, PA 19104",World Cafe Live,http://s3-media3.ak.yelpcdn.com/bphoto/VTDlALkq6VWjZxfPSlN8Fg/ms.jpg,Philadelphia,PA,http://www.yelp.com/biz/world-cafe-live-philadelphia,158,4,-75.1851366,39.9519872
4,"3401 Walnut StUniversity CityPhiladelphia, PA 19104",CVS/pharmacy,http://s3-media2.ak.yelpcdn.com/bphoto/b6kZjOV6G1p1L_UJdysN_g/ms.jpg,Philadelphia,PA,http://www.yelp.com/biz/cvs-pharmacy-philadelphia-49,12,2,-75.193026,39.952998
5,"3218 Market StUniversity CityPhiladelphia, PA 19104",Starbucks,http://s3-media1.ak.yelpcdn.com/bphoto/F6nhU8jSBLh3XEbMYphpmA/ms.jpg,Philadelphia,PA,http://www.yelp.com/biz/starbucks-philadelphia-8,4,3,-75.1871563,39.9552997
6,"3701 Market StPowelton VillagePhiladelphia, PA 19104",Edward S. Cooper Practice of General Internal Medicine,http://s3-media1.ak.yelpcdn.com/assets/2/www/img/924a6444ca6c/gfx/blank_biz_medium.gif,Philadelphia,PA,http://www.yelp.com/biz/edward-s-cooper-practice-of-general-internal-medicine-philadelphia,3,1,-75.1961361,39.9564491
7,"208 S 40th StUniversity CityPhiladelphia, PA 19104",Smokey Joe's Tavern,http://s3-media2.ak.yelpcdn.com/bphoto/6zXu1J2Cjl2p6ym_reAaaw/ms.jpg,Philadelphia,PA,http://www.yelp.com/biz/smokey-joes-tavern-philadelphia-2,50,3.5,-75.2027865,39.9536784
8,"3600 Sansom StUniversity CityPhiladelphia, PA 19104",University Club at Penn,http://s3-media1.ak.yelpcdn.com/assets/2/www/img/924a6444ca6c/gfx/blank_biz_medium.gif,Philadelphia,PA,http://www.yelp.com/biz/university-club-at-penn-philadelphia,4,3,-75.1956868,39.9538657
9,"4006 Market StUniversity CityPhiladelphia, PA 19104",Bo Sing,http://s3-media1.ak.yelpcdn.com/assets/2/www/img/924a6444ca6c/gfx/blank_biz_medium.gif,Philadelphia,PA,http://www.yelp.com/biz/bo-sing-philadelphia,3,5,-75.2023056,39.957064
10,"3500 Market StUniversity CityPhiladelphia, PA 19104",Monell Chemical Senses Center,http://s3-media1.ak.yelpcdn.com/bphoto/kO0ZTciikeYP9e0pai9SOg/ms.jpg,Philadelphia,PA,http://www.yelp.com/biz/monell-chemical-senses-center-philadelphia,2,5,-75.1931726,39.9558853
11,"3602 Chestnut StUniversity CityPhiladelphia, PA 19104",Pizza Rustica,http://s3-media2.ak.yelpcdn.com/bphoto/KRnUavxcvZgxdGbGR8_RhA/ms.jpg,Philadelphia,PA,http://www.yelp.com/biz/pizza-rustica-philadelphia,76,2.5,-75.1946414,39.9546756
12,"3800 Locust WalkUniversity CityPhiladelphia, PA 19104",C3,http://s3-media3.ak.yelpcdn.com/bphoto/Muv7OksIQCEp390QrCh3hg/ms.jpg,Philadelphia,PA,http://www.yelp.com/biz/c3-philadelphia,2,1,-75.1993713,39.9524864
13,"230 S 40th StUniversity CityPhiladelphia, PA 19104",Qdoba Mexican Grill,http://s3-media1.ak.yelpcdn.com/bphoto/lz6F327w2Yh2VAFZ1mxvBA/ms.jpg,Philadelphia,PA,http://www.yelp.com/biz/qdoba-mexican-grill-philadelphia-2,28,3.5,-75.2029367,39.953101
14,"36th & MarketPowelton VillagePhiladelphia, PA 19104",Gul's Breakfast & Lunch Cart,http://s3-media4.ak.yelpcdn.com/bphoto/6NRWiuLbw2kssPT2wEBZ3g/ms.jpg,Philadelphia,PA,http://www.yelp.com/biz/guls-breakfast-and-lunch-cart-philadelphia,7,4.5,-75.1941485,39.956188
15,"8308-8338 Regents Rd.University CitySan Diego, CA 92122",Pines of La Jolla,http://s3-media3.ak.yelpcdn.com/bphoto/gpGPCLGgCr9rQBPQLTYRcQ/ms.jpg,San Diego,CA,http://www.yelp.com/biz/pines-of-la-jolla-san-diego,2,3.5,-117.222214,32.86676
16,"8929 University Center LnSte 102University CitySan Diego, CA 92122",Pietraszek James Casimir MD Facs,http://s3-media1.ak.yelpcdn.com/assets/2/www/img/924a6444ca6c/gfx/blank_biz_medium.gif,San Diego,CA,http://www.yelp.com/biz/pietraszek-james-casimir-md-facs-san-diego,3,5,-117.226524,32.869842
17,"34th & MarketPowelton VillagePhiladelphia, PA 19104",Market 16 Noodle Bar,http://s3-media1.ak.yelpcdn.com/assets/2/www/img/924a6444ca6c/gfx/blank_biz_medium.gif,Philadelphia,PA,http://www.yelp.com/biz/market-16-noodle-bar-philadelphia,4,2,-75.1914738,39.9558499
18,"University of Pennsylvania3805 Locust WalkUniversity CityPhiladelphia, PA 19104",Kelly Writers House,http://s3-media1.ak.yelpcdn.com/bphoto/XTrMh0XIlB1ViBi-dgnVbQ/ms.jpg,Philadelphia,PA,http://www.yelp.com/biz/kelly-writers-house-philadelphia,4,4.5,-75.199356,39.952583
19,"38th & Walnut StUniversity CityPhiladelphia, PA 19104",House of Pita Hanan,http://s3-media2.ak.yelpcdn.com/bphoto/3PzpKa3HwsyyRlQ95wTamw/ms.jpg,Philadelphia,PA,http://www.yelp.com/biz/house-of-pita-hanan-philadelphia,14,3.5,-75.1987871,39.9536482
20,"3400 Spruce StUniversity CityPhiladelphia, PA 19104","Michael Cirigliano, MD",http://s3-media1.ak.yelpcdn.com/assets/2/www/img/924a6444ca6c/gfx/blank_biz_medium.gif,Philadelphia,PA,http://www.yelp.com/biz/michael-cirigliano-md-philadelphia,3,5,-75.1931012,39.9500166
21,"3535 Market StPowelton VillagePhiladelphia, PA 19104",FedEx Office Print & Ship Center,http://s3-media1.ak.yelpcdn.com/bphoto/gPef7kEuP5LsuL2BjbyYvQ/ms.jpg,Philadelphia,PA,http://www.yelp.com/biz/fedex-office-print-and-ship-center-philadelphia,4,4.5,-75.193911,39.956423
22,"3920 Spruce StUniversity CityPhiladelphia, PA 19104",House of Our Own,http://s3-media4.ak.yelpcdn.com/bphoto/J17WTliRVMnb75gCW4WZAA/ms.jpg,Philadelphia,PA,http://www.yelp.com/biz/house-of-our-own-philadelphia,18,4.5,-75.2018583,39.9514381
23,"3900 Chestnut StUniversity CityPhiladelphia, PA 19104",Drinker's West,http://s3-media2.ak.yelpcdn.com/bphoto/QYPxp6makPzLLoJg7OT6Kw/ms.jpg,Philadelphia,PA,http://www.yelp.com/biz/drinkers-west-philadelphia,61,3.5,-75.2001318,39.9549304
24,"3845 Nobel DrUniversity CitySan Diego, CA 92122",La Scala Luxury Villas,http://s3-media1.ak.yelpcdn.com/bphoto/pWdR6Ma5lEYExXUcrJsxUw/ms.jpg,San Diego,CA,http://www.yelp.com/biz/la-scala-luxury-villas-san-diego,9,3,-117.2236665,32.8682733
25,"4060 Chestnut StUniversity CityPhiladelphia, PA 19104",New Style Pizza,http://s3-media1.ak.yelpcdn.com/bphoto/LzJBDdamOdlyPYONCeIkEQ/ms.jpg,Philadelphia,PA,http://www.yelp.com/biz/new-style-pizza-philadelphia,13,3.5,-75.204672,39.955682
26,"8970 University Center LnUniversity CityLa Jolla, CA 92122",Fleming's Prime Steakhouse & Wine Bar,http://s3-media1.ak.yelpcdn.com/bphoto/yvJgwalK8sgArayp5hykzg/ms.jpg,La Jolla,CA,http://www.yelp.com/biz/flemings-prime-steakhouse-and-wine-bar-la-jolla-2,343,4,-117.2251655,32.8700966
27,"3451 Walnut StUniversity CityPhiladelphia, PA 19104",University of Pennsylvania,http://s3-media3.ak.yelpcdn.com/bphoto/uRN5WC1GA3A8TkIwqfOD_A/ms.jpg,Philadelphia,PA,http://www.yelp.com/biz/university-of-pennsylvania-philadelphia,33,4,-75.19389,39.953115
28,"3401 Walnut StUniversity CityPhiladelphia, PA 19104",Mad Mex,http://s3-media1.ak.yelpcdn.com/bphoto/8WLcP1XXfwtZYzZiQwSHVg/ms.jpg,Philadelphia,PA,http://www.yelp.com/biz/mad-mex-philadelphia,281,3,-75.193026,39.952998
29,"3800 Spruce StUniversity CityPhiladelphia, PA 19104",Veterinary Hospital University of Pennsylvania,http://s3-media3.ak.yelpcdn.com/bphoto/5oGrQj_JlGtHTGmkq7iF5g/ms.jpg,Philadelphia,PA,http://www.yelp.com/biz/veterinary-hospital-university-of-pennsylvania-philadelphia,36,3.5,-75.199939,39.95113
30,"4202 Baltimore AveUniversity CityPhiladelphia, PA 19104",Royal Pizza,http://s3-media1.ak.yelpcdn.com/assets/2/www/img/924a6444ca6c/gfx/blank_biz_medium.gif,Philadelphia,PA,http://www.yelp.com/biz/royal-pizza-philadelphia,5,3.5,-75.2073661,39.9497747
31,"8910 University Center LnSte 800University CitySan Diego, CA 92122",Gordon-Weiss-Schanzlin,http://s3-media4.ak.yelpcdn.com/bphoto/StHagCA2mRqCPoXdtTFstw/ms.jpg,San Diego,CA,http://www.yelp.com/biz/gordon-weiss-schanzlin-san-diego,31,4.5,-117.2268717,32.8709781
32,"3636 Sansom StUniversity CityPhiladelphia, PA 19104",Pod,http://s3-media3.ak.yelpcdn.com/bphoto/VRMtFPTTUbWatjeVSqcp_A/ms.jpg,Philadelphia,PA,http://www.yelp.com/biz/pod-philadelphia,332,3.5,-75.1954898,39.9539924
33,"University of Pennsylvania1920 Commons BuildingUniversity CityPhiladelphia, PA 19104",Jamba Juice,http://s3-media3.ak.yelpcdn.com/bphoto/p-7HhbXx9_E7goSFAXQQYA/ms.jpg,Philadelphia,PA,http://www.yelp.com/biz/jamba-juice-philadelphia,3,1.5,-75.1994966,39.9519037
34,"3400 Spruce StUniversity CityPhiladelphia, PA 19104",Hospital of the University of Pennsylvania,http://s3-media1.ak.yelpcdn.com/bphoto/kgvLK-E7NSW1LGt2YEpTMw/ms.jpg,Philadelphia,PA,http://www.yelp.com/biz/hospital-of-the-university-of-pennsylvania-philadelphia,20,3,-75.1931012,39.9500166
35,"3925 Walnut StUniversity CityPhiladelphia, PA 19104",Sweetgreen,http://s3-media4.ak.yelpcdn.com/bphoto/kcvdXKfyDiSziAjnlZRw3g/ms.jpg,Philadelphia,PA,http://www.yelp.com/biz/sweetgreen-philadelphia,42,3.5,-75.201935,39.954332
36,"33rd and Chestnut StUniversity CityPhiladelphia, PA 19104",Seasons at Drexel,http://s3-media1.ak.yelpcdn.com/assets/2/www/img/924a6444ca6c/gfx/blank_biz_medium.gif,Philadelphia,PA,http://www.yelp.com/biz/seasons-at-drexel-philadelphia,2,2.5,-75.1897392,39.954074
37,"34th St & Civic CtrUniversity CityPhiladelphia, PA 19102",Children's Hospital of Philadelphia,http://s3-media1.ak.yelpcdn.com/bphoto/YlXtCauFVUXNLNOALfRsiA/ms.jpg,Philadelphia,PA,http://www.yelp.com/biz/childrens-hospital-of-philadelphia-philadelphia-2,7,4.5,-75.192923,39.9488219
38,"2955 Market St30th Street StationUniversity CityPhiladelphia, PA 19104",Bridgewater's Pub,http://s3-media4.ak.yelpcdn.com/bphoto/7Bgp_bAaCmKyxqEpyAqUSg/ms.jpg,Philadelphia,PA,http://www.yelp.com/biz/bridgewaters-pub-philadelphia,44,4,-75.1825258,39.9547514
39,"3400 Civic Center BlvdUniversity CityPhiladelphia, PA 19104",Gia Pronto,http://s3-media2.ak.yelpcdn.com/bphoto/Mw_QNLQ5MS84tKG4xf7Ebw/ms.jpg,Philadelphia,PA,http://www.yelp.com/biz/gia-pronto-philadelphia-4,9,3.5,-75.192275,39.947617
40,"4145 Chestnut StUniversity CityPhiladelphia, PA 19104",Cleopatra Cafe,http://s3-media1.ak.yelpcdn.com/bphoto/fLZRVQ71lAyPb6AYZG3pFA/ms.jpg,Philadelphia,PA,http://www.yelp.com/biz/cleopatra-cafe-philadelphia,10,3.5,-75.206101,39.9561262
41,"27 S 40th StUniversity CityPhiladelphia, PA 19104",Tradewinds Aquarium and Pet Center,http://s3-media1.ak.yelpcdn.com/assets/2/www/img/924a6444ca6c/gfx/blank_biz_medium.gif,Philadelphia,PA,http://www.yelp.com/biz/tradewinds-aquarium-and-pet-center-philadelphia,14,2,-75.2020672,39.956244
42,"3801 Chestnut StUniversity CityPhiladelphia, PA 19104",The Blockley,http://s3-media3.ak.yelpcdn.com/bphoto/ibdXJ6BdymuwS3jS4WE0ug/ms.jpg,Philadelphia,PA,http://www.yelp.com/biz/the-blockley-philadelphia,46,3.5,-75.198948,39.955642
43,"8540 Costa Verde BlvdSte 4532University CitySan Diego, CA 92122",Ku Kustoms,http://s3-media2.ak.yelpcdn.com/bphoto/5ksMJd67yNAA5ZZYkY9PUQ/ms.jpg,San Diego,CA,http://www.yelp.com/biz/ku-kustoms-san-diego,3,4.5,-117.21822,32.868621
44,"3205 Lancaster AvePowelton VillagePhiladelphia, PA 19104",33rd Street Armory,http://s3-media1.ak.yelpcdn.com/assets/2/www/img/924a6444ca6c/gfx/blank_biz_medium.gif,Philadelphia,PA,http://www.yelp.com/biz/33rd-street-armory-philadelphia,4,3.5,-75.188673,39.956445
45,"3549 Chestnut StUniversity CityPhiladelphia, PA 19104",Sang Kee Noodle House,http://s3-media3.ak.yelpcdn.com/bphoto/yjb4s-xscSicY8WruvNgcg/ms.jpg,Philadelphia,PA,http://www.yelp.com/biz/sang-kee-noodle-house-philadelphia-2,22,3,-75.194077,39.954622
46,"2955 Market StUniversity CityPhiladelphia, PA 19104",The Porch At 30th Street Station,http://s3-media1.ak.yelpcdn.com/assets/2/www/img/924a6444ca6c/gfx/blank_biz_medium.gif,Philadelphia,PA,http://www.yelp.com/biz/the-porch-at-30th-street-station-philadelphia,2,4.5,-75.185108,39.954622
47,"N 33rd St & Arch StPowelton VillagePhiladelphia, PA 19104",The Spot Food Truck,http://s3-media2.ak.yelpcdn.com/bphoto/gVq3y2gmWN6H7Q4DdwpA7g/ms.jpg,Philadelphia,PA,http://www.yelp.com/biz/the-spot-food-truck-philadelphia,15,4.5,-75.1890664,39.9576073
48,"Powelton VillagePhiladelphia, PA 19104",Pitruco Pizza,http://s3-media3.ak.yelpcdn.com/bphoto/UXqdHXaa17ufXLkGck99Fg/ms.jpg,Philadelphia,PA,http://www.yelp.com/biz/pitruco-pizza-philadelphia,42,4.5,-75.1953934,39.9583587
49,"8899 University Center LnSte 190University CitySan Diego, CA 92122",Center For Dental Health,http://s3-media1.ak.yelpcdn.com/assets/2/www/img/924a6444ca6c/gfx/blank_biz_medium.gif,San Diego,CA,http://www.yelp.com/biz/center-for-dental-health-san-diego,5,4.5,-117.2280774,32.8700905
50,"3925 Walnut StUniversity CityPhiladelphia, PA 19104",Chipotle,http://s3-media2.ak.yelpcdn.com/bphoto/fTYeQPy8PKMZr3afLDM_fg/ms.jpg,Philadelphia,PA,http://www.yelp.com/biz/chipotle-philadelphia-2,39,3.5,-75.2019963,39.9541371
51,"3424 Sansom StUniversity CityPhiladelphia, PA 19104",The Black Cat,http://s3-media2.ak.yelpcdn.com/bphoto/otutQl2XuIZkHLA5pi83Vg/ms.jpg,Philadelphia,PA,http://www.yelp.com/biz/the-black-cat-philadelphia,11,4,-75.1930029,39.9536639
52,"9800 Hibert streetUniversity CitySan Diego, CA 92131",Hair by JMoli,http://s3-media1.ak.yelpcdn.com/bphoto/nl0YGcZgYuPoSDPBDejwgg/ms.jpg,San Diego,CA,http://www.yelp.com/biz/hair-by-jmoli-san-diego,7,5,-117.2254944,32.87093694
53,"3402 Sansom StUniversity CityPhiladelphia, PA 19104",Baby Blues BBQ,http://s3-media1.ak.yelpcdn.com/bphoto/Qfj_a_qBNM7XF5i6TEtnMA/ms.jpg,Philadelphia,PA,http://www.yelp.com/biz/baby-blues-bbq-philadelphia,78,3,-75.192424,39.953442
54,"2955 Market StreetUniversity CityPhiladelphia, PA 19104",Amtrak,http://s3-media4.ak.yelpcdn.com/bphoto/ar_W5Y-nZM97P8M0hL_vcA/ms.jpg,Philadelphia,PA,http://www.yelp.com/biz/amtrak-philadelphia,38,3.5,-75.1850492,39.9546084
55,"218 S 40th StSte AUniversity CityPhiladelphia, PA 19104",Ben & Jerry's,http://s3-media4.ak.yelpcdn.com/bphoto/wfrwo-D7Ax4iBhMsE2_k8Q/ms.jpg,Philadelphia,PA,http://www.yelp.com/biz/ben-and-jerrys-philadelphia-2,11,3.5,-75.2027264,39.9534731
56,"233 S 33rd StUniversity CityPhiladelphia, PA 19104",Brysi,http://s3-media1.ak.yelpcdn.com/bphoto/0rX6L8bdEI3Q_qZJuV7YLQ/ms.jpg,Philadelphia,PA,http://www.yelp.com/biz/brysi-philadelphia,3,4,-75.1902895,39.9514904
57,"3400 Market StUniversity CityPhiladelphia, PA 19104",Philly Delicias,http://s3-media3.ak.yelpcdn.com/bphoto/HlCSGjE8nj49ZCN34RnMww/ms.jpg,Philadelphia,PA,http://www.yelp.com/biz/philly-delicias-philadelphia,21,4,-75.1917267,39.9556923
58,"3400 Civic Center Blvd1st Fl TRC/Perelman CtrUniversity CityPhiladelphia, PA 19104",Soup'er Sushi,http://s3-media2.ak.yelpcdn.com/bphoto/zfC1rQtFJbNDcRJP-SylAQ/ms.jpg,Philadelphia,PA,http://www.yelp.com/biz/souper-sushi-philadelphia,2,5,-75.1934743,39.9475112
59,"S 33rdUniversity CityPhiladelphia, PA 19104",Franklin Field,http://s3-media3.ak.yelpcdn.com/bphoto/XrepQW17BRArGMD_MtQFJw/ms.jpg,Philadelphia,PA,http://www.yelp.com/biz/franklin-field-philadelphia,3,5,-75.1901014,39.9522303
60,"3404 Sansom StUniversity CityPhiladelphia, PA 19104",The Bubble House,http://s3-media2.ak.yelpcdn.com/bphoto/-8-UivmjgE_YxXBSLJegLA/ms.jpg,Philadelphia,PA,http://www.yelp.com/biz/the-bubble-house-philadelphia,120,2.5,-75.1924417,39.9535932
61,"33rd St Between Market And ChestnutPowelton VillagePhiladelphia, PA 19104",Insomnia Cookies,http://s3-media1.ak.yelpcdn.com/bphoto/xRfVC9qEuftrZFyd-D4BHg/ms.jpg,Philadelphia,PA,http://www.yelp.com/biz/insomnia-cookies-philadelphia-4,4,4.5,-75.1953934,39.9583587
62,"238 S 38th StUniversity CityPhiladelphia, PA 19104","Yue Kee, Mobile Kitchen",http://s3-media1.ak.yelpcdn.com/bphoto/0oDKI60kPmv3gDRxl59jNw/ms.jpg,Philadelphia,PA,http://www.yelp.com/biz/yue-kee-mobile-kitchen-philadelphia,37,3.5,-75.198972,39.9527487
63,"3600 Chestnut StUniversity CityPhiladelphia, PA 19104",Marathon Embroidery Company Inc,http://s3-media1.ak.yelpcdn.com/assets/2/www/img/924a6444ca6c/gfx/blank_biz_medium.gif,Philadelphia,PA,http://www.yelp.com/biz/marathon-embroidery-company-inc-philadelphia,2,4,-75.1953751,39.9544457
64,"4000 Woodland AveUniversity CityPhiladelphia, PA 19104",Woodlands Cemetery Co,http://s3-media1.ak.yelpcdn.com/bphoto/0j5ChWh7Jacl9G6cI3_BcQ/ms.jpg,Philadelphia,PA,http://www.yelp.com/biz/woodlands-cemetery-co-philadelphia,9,4.5,-75.2033016,39.9491135
65,"4201 Chestnut StUniversity CityPhiladelphia, PA 19104",Kabobeesh,http://s3-media3.ak.yelpcdn.com/bphoto/M9yE_aNhFeLYq29FiCI55g/ms.jpg,Philadelphia,PA,http://www.yelp.com/biz/kabobeesh-philadelphia,90,4,-75.206499,39.956321
66,"2929 Arch StUniversity CityPhiladelphia, PA 19195",Rae,http://s3-media2.ak.yelpcdn.com/bphoto/MOFNkCzOuWni4OmjB58F9w/ms.jpg,Philadelphia,PA,http://www.yelp.com/biz/rae-philadelphia,17,3.5,-75.1822288,39.9570934
67,"3925 Walnut StUniversity CityPhiladelphia, PA 19104",Capogiro Gelato,http://s3-media4.ak.yelpcdn.com/bphoto/jKaWwV4xkSNuV0SKGCOSOQ/ms.jpg,Philadelphia,PA,http://www.yelp.com/biz/capogiro-gelato-philadelphia-2,110,4,-75.201935,39.954332
68,"3409 Walnut StUniversity CityPhiladelphia, PA 19104",Mediterranean Cafe & Ice Cream,http://s3-media1.ak.yelpcdn.com/assets/2/www/img/924a6444ca6c/gfx/blank_biz_medium.gif,Philadelphia,PA,http://www.yelp.com/biz/mediterranean-cafe-and-ice-cream-philadelphia,7,3,-75.1930905,39.952956
69,"222 S 40th StUniversity CityPhiladelphia, PA 19104",The Greek Lady,http://s3-media1.ak.yelpcdn.com/bphoto/n-YbPODQysBdzxnnNRnEPg/ms.jpg,Philadelphia,PA,http://www.yelp.com/biz/the-greek-lady-philadelphia,143,3.5,-75.2027684,39.9533666
70,"Spruce St & 37th StUniversity CityPhiladelphia, PA 19104",Khan's Hot Dog Cart,http://s3-media1.ak.yelpcdn.com/assets/2/www/img/924a6444ca6c/gfx/blank_biz_medium.gif,Philadelphia,PA,http://www.yelp.com/biz/khans-hot-dog-cart-philadelphia,4,2.5,-75.197377,39.95095
71,"3929 Sansom StUniversity CityPhiladelphia, PA 19104",Fatboy & Slim's,http://s3-media1.ak.yelpcdn.com/bphoto/-TbiqXL7qjuYsyq4TwMG0g/ms.jpg,Philadelphia,PA,http://www.yelp.com/biz/fatboy-and-slims-philadelphia-2,4,4.5,-75.2010456,39.9547647
72,"4040 Locust StUniversity CityPhiladelphia, PA 19104",Keswick Cycle,http://s3-media1.ak.yelpcdn.com/assets/2/www/img/924a6444ca6c/gfx/blank_biz_medium.gif,Philadelphia,PA,http://www.yelp.com/biz/keswick-cycle-philadelphia-2,15,4,-75.204796,39.952878
73,"3707 Nobel DrUniversity CitySan Diego, CA 92122",Nobel Court,http://s3-media1.ak.yelpcdn.com/assets/2/www/img/924a6444ca6c/gfx/blank_biz_medium.gif,San Diego,CA,http://www.yelp.com/biz/nobel-court-san-diego,11,2,-117.2267368,32.86760317
74,"3401 Walnut StUniversity CityPhiladelphia, PA 19104",Gap,http://s3-media1.ak.yelpcdn.com/assets/2/www/img/924a6444ca6c/gfx/blank_biz_medium.gif,Philadelphia,PA,http://www.yelp.com/biz/gap-philadelphia,6,2.5,-75.193026,39.952998
75,"130 S 34th StUniversity CityPhiladelphia, PA 19195",Penn Book Center,http://s3-media3.ak.yelpcdn.com/bphoto/zHt7c6qYSJEfeUzX32NI_w/ms.jpg,Philadelphia,PA,http://www.yelp.com/biz/penn-book-center-philadelphia,14,4,-75.1920015,39.9533943
76,"2951 Market StUniversity CityPhiladelphia, PA 19104",Hertz Rent A Car,http://s3-media1.ak.yelpcdn.com/assets/2/www/img/924a6444ca6c/gfx/blank_biz_medium.gif,Philadelphia,PA,http://www.yelp.com/biz/hertz-rent-a-car-philadelphia-11,3,3,-75.1823305,39.9547305
77,"3736 Spruce StUniversity CityPhiladelphia, PA 19104",Gia Pronto,http://s3-media1.ak.yelpcdn.com/bphoto/Z2YtUblYc5X9oYBsfBVCKA/ms.jpg,Philadelphia,PA,http://www.yelp.com/biz/gia-pronto-philadelphia,45,4,-75.198778,39.9511035
78,"3950 Mahaila AveUniversity CitySan Diego, CA 92122",Trieste Apartment Villas,http://s3-media1.ak.yelpcdn.com/bphoto/RX29YomHB2RaWQfbghsv4g/ms.jpg,San Diego,CA,http://www.yelp.com/biz/trieste-apartment-villas-san-diego,14,2,-117.221637,32.869603
79,"34 S 40th StUniversity CityPhiladelphia, PA 19104",Locust Moon Comics and Movies,http://s3-media1.ak.yelpcdn.com/assets/2/www/img/924a6444ca6c/gfx/blank_biz_medium.gif,Philadelphia,PA,http://www.yelp.com/biz/locust-moon-comics-and-movies-philadelphia,7,4,-75.202474,39.956189
80,"3401 Walnut StUniversity CityPhiladelphia, PA 19104",Naked Chocolate,http://s3-media1.ak.yelpcdn.com/assets/2/www/img/924a6444ca6c/gfx/blank_biz_medium.gif,Philadelphia,PA,http://www.yelp.com/biz/naked-chocolate-philadelphia-2,3,5,-75.193026,39.952998
81,"S 31st & Ludlow StUniversity CityPhiladelphia, PA 19104",Cucina Zapata,http://s3-media4.ak.yelpcdn.com/bphoto/IUjIcNPT6K-UW6qQexqbtg/ms.jpg,Philadelphia,PA,http://www.yelp.com/biz/cucina-zapata-philadelphia,39,4.5,-75.1855117,39.9542959
82,"8720 Costa Verde BlvdUniversity CitySan Diego, CA 92122",Oasis Day Spa,http://s3-media2.ak.yelpcdn.com/bphoto/sOH0st5kjnYy7JGYSMk4sw/ms.jpg,San Diego,CA,http://www.yelp.com/biz/oasis-day-spa-san-diego-2,3,5,-117.218687,32.870225
83,"4145 Chestnut StUniversity CityPhiladelphia, PA 19104",Head Cook's Pizza & Bakery,http://s3-media2.ak.yelpcdn.com/bphoto/bJYRXE22vdxhmLMOtAHtJw/ms.jpg,Philadelphia,PA,http://www.yelp.com/biz/head-cooks-pizza-and-bakery-philadelphia,7,3.5,-75.2061045,39.9561272
84,"8960 University Center LnUniversity CitySan Diego, CA 92122",Cafe Japengo,http://s3-media3.ak.yelpcdn.com/bphoto/C71f-LgZuNirkP3glGzOYw/ms.jpg,San Diego,CA,http://www.yelp.com/biz/cafe-japengo-san-diego,282,3.5,-117.225396,32.8701269
85,"2955 Market StSte 125University CityPhiladelphia, PA 19104",Faber Bookstore,http://s3-media1.ak.yelpcdn.com/assets/2/www/img/924a6444ca6c/gfx/blank_biz_medium.gif,Philadelphia,PA,http://www.yelp.com/biz/faber-bookstore-philadelphia,3,1.5,-75.185108,39.954622
86,"3801 Chestnut StUniversity CityPhiladelphia, PA 19104",Koreana,http://s3-media2.ak.yelpcdn.com/bphoto/SVzLVlDxB3IomOYtTVLfkg/ms.jpg,Philadelphia,PA,http://www.yelp.com/biz/koreana-philadelphia,118,4,-75.198948,39.955642
87,"3931 Walnut StUniversity CityPhiladelphia, PA 19104",Hummus,http://s3-media4.ak.yelpcdn.com/bphoto/sipCyjKlvthyfbwmqAul1g/ms.jpg,Philadelphia,PA,http://www.yelp.com/biz/hummus-philadelphia,137,3.5,-75.202112,39.95437
88,"3600 Sansom StUniversity CityPhiladelphia, PA 19104",The Inn at Penn,http://s3-media3.ak.yelpcdn.com/bphoto/_6Dwv1MFNNqvMgOfW-EMyA/ms.jpg,Philadelphia,PA,http://www.yelp.com/biz/the-inn-at-penn-philadelphia,21,4,-75.1956868,39.9538657
89,"119 S 39th StUniversity CityPhiladelphia, PA 19104",Cavanaugh's Restaurant,http://s3-media2.ak.yelpcdn.com/bphoto/DBPr9V-C5hnuSLeQguitcQ/ms.jpg,Philadelphia,PA,http://www.yelp.com/biz/cavanaughs-restaurant-philadelphia,44,2.5,-75.200022,39.9545372
90,"4005 Chestnut StUniversity CityPhiladelphia, PA 19104",Walter Wood Real Estate,http://s3-media1.ak.yelpcdn.com/assets/2/www/img/924a6444ca6c/gfx/blank_biz_medium.gif,Philadelphia,PA,http://www.yelp.com/biz/walter-wood-real-estate-philadelphia,5,2.5,-75.2022219,39.9554565
91,"3942 Spruce StUniversity CityPhiladelphia, PA 19104",Allegro Pizza,http://s3-media4.ak.yelpcdn.com/bphoto/T_THexV_u45eFEgBrlBYUA/ms.jpg,Philadelphia,PA,http://www.yelp.com/biz/allegro-pizza-philadelphia,84,3.5,-75.2028879,39.9516632
92,"3401 Civic Center BlvdUniversity CityPhiladelphia, PA 19104",Potbelly Sandwich Works,http://s3-media1.ak.yelpcdn.com/assets/2/www/img/924a6444ca6c/gfx/blank_biz_medium.gif,Philadelphia,PA,http://www.yelp.com/biz/potbelly-sandwich-works-philadelphia-3,11,3.5,-75.193303,39.948205
93,"Nvision Laser Eye Centers3655 Nobel Dr, Ste 130University CityLa Jolla, CA 92122","Mihir M Parikh, OD",http://s3-media1.ak.yelpcdn.com/assets/2/www/img/924a6444ca6c/gfx/blank_biz_medium.gif,La Jolla,CA,http://www.yelp.com/biz/mihir-m-parikh-od-la-jolla,3,4,-117.227913,32.86769
94,"33rd St & Market StUniversity CityPhiladelphia, PA 19104",Ton Ton Japanese Food Cart,http://s3-media1.ak.yelpcdn.com/assets/2/www/img/924a6444ca6c/gfx/blank_biz_medium.gif,Philadelphia,PA,http://www.yelp.com/biz/ton-ton-japanese-food-cart-philadelphia,3,3,-75.189343,39.955414
95,"4012 Market StUniversity CityPhiladelphia, PA 19104",Itno-J Spa,http://s3-media1.ak.yelpcdn.com/assets/2/www/img/924a6444ca6c/gfx/blank_biz_medium.gif,Philadelphia,PA,http://www.yelp.com/biz/itno-j-spa-philadelphia,2,3,-75.2025691,39.9570952
96,"3131 Walnut StUniversity CityPhiladelphia, PA 19104",Ajia Restaurant & Sushi Bar,http://s3-media4.ak.yelpcdn.com/bphoto/81k-oBOlrknU0VxboChkzw/ms.jpg,Philadelphia,PA,http://www.yelp.com/biz/ajia-restaurant-and-sushi-bar-philadelphia,63,2.5,-75.1873948,39.9523072
97,"3631 Walnut StUniversity CityPhiladelphia, PA 19104",Cereality,http://s3-media3.ak.yelpcdn.com/bphoto/Hg2oAXXJb0g6cZ4qJbJe6A/ms.jpg,Philadelphia,PA,http://www.yelp.com/biz/cereality-philadelphia,22,3.5,-75.1963913,39.9534565
98,"3000 Market StUniversity CityPhiladelphia, PA 19104",Slainte Pub & Grill,http://s3-media3.ak.yelpcdn.com/bphoto/OPPQpRgArK7BHEC5jn61uQ/ms.jpg,Philadelphia,PA,http://www.yelp.com/biz/slainte-pub-and-grill-philadelphia,61,3.5,-75.1834707,39.9548431
99,"3631 Walnut StUniversity CityPhiladelphia, PA 19104",Verizon Wireless,http://s3-media1.ak.yelpcdn.com/bphoto/ca86YK6mqsvwiSN8zrgdXA/ms.jpg,Philadelphia,PA,http://www.yelp.com/biz/verizon-wireless-philadelphia-18,5,3,-75.1963913,39.9534565
100,"3945 Nobel DriveUniversity CitySan Diego, CA 92122",The Venetian Apartments,http://s3-media1.ak.yelpcdn.com/assets/2/www/img/924a6444ca6c/gfx/blank_biz_medium.gif,San Diego,CA,http://www.yelp.com/biz/the-venetian-apartments-san-diego,3,4.5,-117.221278,32.8676794
101,"3777 La Jolla Village DrUniversity CityLa Jolla, CA 92037",Hyatt Regency La Jolla,http://s3-media2.ak.yelpcdn.com/bphoto/wwfarylmkIXM7pHErjhqiQ/ms.jpg,La Jolla,CA,http://www.yelp.com/biz/hyatt-regency-la-jolla-la-jolla,114,3.5,-117.225644,32.870925
102,"Spruce StUniversity CityPhiladelphia, PA 19104",Casablanca Food Cart,http://s3-media1.ak.yelpcdn.com/assets/2/www/img/924a6444ca6c/gfx/blank_biz_medium.gif,Philadelphia,PA,http://www.yelp.com/biz/casablanca-food-cart-philadelphia,2,2.5,-75.2029214,39.9517275
103,"3417 Spruce StreetUniversity CityPhiladelphia, PA 19104",Houston Hall,http://s3-media1.ak.yelpcdn.com/bphoto/i6dNc9mkFE43sCorxcOBIA/ms.jpg,Philadelphia,PA,http://www.yelp.com/biz/houston-hall-philadelphia,7,2.5,-75.1928298,39.9504832
104,"3925 Walnut StUniversity CityPhiladelphia, PA 19104",Bobby's Burger Palace,http://s3-media4.ak.yelpcdn.com/bphoto/zzCeXk64gUxn9leB4ulK1w/ms.jpg,Philadelphia,PA,http://www.yelp.com/biz/bobbys-burger-palace-philadelphia,366,3.5,-75.2019963,39.9541371
105,"3527 Lancaster AvePowelton VillagePhiladelphia, PA 19104",Power Yoga Works,http://s3-media2.ak.yelpcdn.com/bphoto/KHjq3Q7MSQekFt2wpT0ujQ/ms.jpg,Philadelphia,PA,http://www.yelp.com/biz/power-yoga-works-philadelphia,15,4,-75.1932464,39.9584923
106,"3636 Nobel DrSte 100University CitySan Diego, CA 92122",Rich & Lindsey Heinrich - Keller Williams,http://s3-media2.ak.yelpcdn.com/bphoto/oihDOOasVtGLAtYhpq8QCw/ms.jpg,San Diego,CA,http://www.yelp.com/biz/rich-and-lindsey-heinrich-keller-williams-san-diego,3,5,-117.227855,32.8689729
107,"4019 Locust StUniversity CityPhiladelphia, PA 19104",Herman Realty Group,http://s3-media1.ak.yelpcdn.com/assets/2/www/img/924a6444ca6c/gfx/blank_biz_medium.gif,Philadelphia,PA,http://www.yelp.com/biz/herman-realty-group-philadelphia,3,3.5,-75.2038052,39.9531823
108,"3655 Nobel DrUniversity CitySan Diego, CA 92122",NVISION Laser Eye Centers,http://s3-media1.ak.yelpcdn.com/bphoto/rLKw4tnc0FXsCTpxY42T-g/ms.jpg,San Diego,CA,http://www.yelp.com/biz/nvision-laser-eye-centers-san-diego,34,4.5,-117.227913,32.86769
109,"4000 Spruce StUniversity CityPhiladelphia, PA 19104",Copabanana,http://s3-media1.ak.yelpcdn.com/bphoto/SYu0AVVNYymkPjVXleSBIg/ms.jpg,Philadelphia,PA,http://www.yelp.com/biz/copabanana-philadelphia-3,68,3,-75.203277,39.951519
110,"3900 Woodland AveUniversity CityPhiladelphia, PA 19104",Philadelphia VA Medical Center,http://s3-media3.ak.yelpcdn.com/bphoto/xCfk6xmoubQmylbj53Z1zQ/ms.jpg,Philadelphia,PA,http://www.yelp.com/biz/philadelphia-va-medical-center-philadelphia,2,2,-75.2033854,39.949122
111,"37th & Chestnut/WalnutUniversity CityPhiladelphia, PA 19104",George's Food truck,http://s3-media3.ak.yelpcdn.com/bphoto/bZ7mgbRWSqa1YkJGH0fTrQ/ms.jpg,Philadelphia,PA,http://www.yelp.com/biz/georges-food-truck-philadelphia,2,4,-75.1964415,39.9549097
112,"3611 Walnut StUniversity CityPhiladelphia, PA 19104",Penne Restaurant and Wine Bar,http://s3-media1.ak.yelpcdn.com/assets/2/www/img/924a6444ca6c/gfx/blank_biz_medium.gif,Philadelphia,PA,http://www.yelp.com/biz/penne-restaurant-and-wine-bar-philadelphia-2,4,2.5,-75.19499,39.953306
113,"3655 Nobel DrSte 620University CitySan Diego, CA 92122",TechLaw LLP,http://s3-media4.ak.yelpcdn.com/bphoto/_Sjeg1Ne5Kp5Y8Uw59MKhw/ms.jpg,San Diego,CA,http://www.yelp.com/biz/techlaw-llp-san-diego,2,5,-117.227913,32.86769
114,"2951 Market StUniversity CityPhiladelphia, PA 19104",Au Bon Pain,http://s3-media3.ak.yelpcdn.com/bphoto/_uNs8m5eBgMuacom7CAilg/ms.jpg,Philadelphia,PA,http://www.yelp.com/biz/au-bon-pain-philadelphia,9,3,-75.182513,39.9557369
115,"2951 Market StUniversity CityPhiladelphia, PA 19104",Saxbys,http://s3-media3.ak.yelpcdn.com/bphoto/i8Rr7XYai0RHFxCJc3eoSA/ms.jpg,Philadelphia,PA,http://www.yelp.com/biz/saxbys-philadelphia,9,3,-75.182513,39.9557369
116,"3916 Locust WalkUniversity CityPhiladelphia, PA 19104",St Mary's Church Hamilton Village,http://s3-media2.ak.yelpcdn.com/bphoto/PMTduWr0ww6jiBL1bQa36g/ms.jpg,Philadelphia,PA,http://www.yelp.com/biz/st-marys-church-hamilton-village-philadelphia,2,5,-75.2017121,39.9523762
117,"3131 Walnut StUniversity CityPhiladelphia, PA 19104",Sabir's Restaurant,http://s3-media2.ak.yelpcdn.com/bphoto/VhF9dTvy5qmnWPMO6MMYeg/ms.jpg,Philadelphia,PA,http://www.yelp.com/biz/sabirs-restaurant-philadelphia,5,2,-75.1873948,39.9523072
118,"38th and SpruceUniversity CityPhiladelphia, PA 19104",Gigi and Big R,http://s3-media2.ak.yelpcdn.com/bphoto/djtaxwjNCdGBzLR8_VFItg/ms.jpg,Philadelphia,PA,http://www.yelp.com/biz/gigi-and-big-r-philadelphia,21,4,-75.1991465,39.9512588
119,"133 S 36th StUniversity CityPhiladelphia, PA 19104",Ann Taylor Loft,http://s3-media1.ak.yelpcdn.com/bphoto/Zj-akYB5O7E_NUSmKVI4sA/ms.jpg,Philadelphia,PA,http://www.yelp.com/biz/ann-taylor-loft-philadelphia-3,4,3.5,-75.194636,39.9537625
120,"240 S 40th St3rd FlUniversity CityPhiladelphia, PA 19104",Rita Chuang,http://s3-media4.ak.yelpcdn.com/bphoto/XYPsc4Jl52l5qP3WFvK5NQ/ms.jpg,Philadelphia,PA,http://www.yelp.com/biz/rita-chuang-philadelphia,2,5,-75.2029089,39.9527438
121,"3210 Chestnut StUniversity CityPhiladelphia, PA 19104",WKDU Philadelphia 91.7 FM,http://s3-media1.ak.yelpcdn.com/bphoto/F4lyieJyvlYrmzOSbjo_7Q/ms.jpg,Philadelphia,PA,http://www.yelp.com/biz/wkdu-philadelphia-91-7-fm-philadelphia,4,4.5,-75.1874689,39.9537953
122,"40th St & Locust StUniversity CityPhiladelphia, PA 19104",Marrakesh Express Food truck,http://s3-media4.ak.yelpcdn.com/bphoto/9BpD6FrgGGa7KaMQ3PQdFQ/ms.jpg,Philadelphia,PA,http://www.yelp.com/biz/marrakesh-express-food-truck-philadelphia,20,4,-75.20296097,39.95301035
123,"40th St and Sansom StUniversity CityPhiladelphia, PA 19104",Cliff's,http://s3-media1.ak.yelpcdn.com/assets/2/www/img/924a6444ca6c/gfx/blank_biz_medium.gif,Philadelphia,PA,http://www.yelp.com/biz/cliffs-philadelphia,7,2,-75.202428,39.9548764
124,"3680 Walnut StUniversity CityPhiladelphia, PA 19104",Annenberg Center For the Performing Arts,http://s3-media3.ak.yelpcdn.com/bphoto/bcNa0CKF2WTVjrxd9Wv-gA/ms.jpg,Philadelphia,PA,http://www.yelp.com/biz/annenberg-center-for-the-performing-arts-philadelphia,4,4.5,-75.196613,39.9533506
125,"37th and Spruce St.University CityPhiladelphia, PA 19176",Lucky's Mexican Spot Food Truck,http://s3-media1.ak.yelpcdn.com/assets/2/www/img/924a6444ca6c/gfx/blank_biz_medium.gif,Philadelphia,PA,http://www.yelp.com/biz/luckys-mexican-spot-food-truck-philadelphia,7,3,-75.197243,39.951021
126,"3600 Market StUniversity CityPhiladelphia, PA 19104",The Nosh,http://s3-media2.ak.yelpcdn.com/bphoto/pNp6qh8GWYCo0Cgte7rW1g/ms.jpg,Philadelphia,PA,http://www.yelp.com/biz/the-nosh-philadelphia,16,2.5,-75.194665,39.955806
127,"4000 Chestnut StUniversity CityPhiladelphia, PA 19104",Nan Restaurant,http://s3-media1.ak.yelpcdn.com/bphoto/7OKMNZefnT2m0ohvFk4rYQ/ms.jpg,Philadelphia,PA,http://www.yelp.com/biz/nan-restaurant-philadelphia,48,4,-75.202661,39.955609
128,"220 South 40th StUniversity CityPhiladelphia, PA 19104",The Natural Shoe Store,http://s3-media2.ak.yelpcdn.com/bphoto/ez-m4F5ZJmgiQxpn5OhLfw/ms.jpg,Philadelphia,PA,http://www.yelp.com/biz/the-natural-shoe-store-philadelphia,7,3.5,-75.203201,39.9540162
129,"3701 Chestnut StUniversity CityPhiladelphia, PA 19195",International House,http://s3-media3.ak.yelpcdn.com/bphoto/XOpFKp6UMz4j4MpQ6aY18w/ms.jpg,Philadelphia,PA,http://www.yelp.com/biz/international-house-philadelphia,10,4,-75.196776,39.955066
130,"220 S 40th StUniversity CityPhiladelphia, PA 19104",The Last Word Bookshop,http://s3-media2.ak.yelpcdn.com/bphoto/mMiRCwCV0eDVMBN7MhHN0w/ms.jpg,Philadelphia,PA,http://www.yelp.com/biz/the-last-word-bookshop-philadelphia,33,4,-75.203201,39.9540162
131,"3945 Chestnut StUniversity CityPhiladelphia, PA 19104",Jean Madeline Aveda Institute,http://s3-media4.ak.yelpcdn.com/bphoto/bB2U3nVgPVaJAkWiQA7F7g/ms.jpg,Philadelphia,PA,http://www.yelp.com/biz/jean-madeline-aveda-institute-philadelphia-7,88,3.5,-75.2019323,39.9556202
132,"28 S 40th StUniversity CityPhiladelphia, PA 19104",Lovers & Madmen,http://s3-media3.ak.yelpcdn.com/bphoto/Ck2kKBm2tc5nbDepizAulA/ms.jpg,Philadelphia,PA,http://www.yelp.com/biz/lovers-and-madmen-philadelphia,85,4,-75.202378,39.956325
133,"3406 Sansom StUniversity CityPhiladelphia, PA 19104",Avril 50,http://s3-media3.ak.yelpcdn.com/bphoto/VkNhkBQw72-snkR6VDU9mg/ms.jpg,Philadelphia,PA,http://www.yelp.com/biz/avril-50-philadelphia,32,4.5,-75.1924782,39.9535984
134,"S 38th St & Locust WalkUniversity CityPhiladelphia, PA 19104",James G. Kaskey Memorial Garden,http://s3-media4.ak.yelpcdn.com/bphoto/A0C_--I9tndiTIXd7RLugw/ms.jpg,Philadelphia,PA,http://www.yelp.com/biz/james-g-kaskey-memorial-garden-philadelphia,5,5,-75.19815445,39.94906252
135,"4012 Walnut StUniversity CityPhiladelphia, PA 19104",Rave Motion Pictures U Penn 6,http://s3-media4.ak.yelpcdn.com/bphoto/Fu68MO6X_a1KuKUJ-9NW3g/ms.jpg,Philadelphia,PA,http://www.yelp.com/biz/rave-motion-pictures-u-penn-6-philadelphia,43,3,-75.2024769,39.9540328
136,"3201 Arch StSte 10University CityPhiladelphia, PA 19104",Academic Properties Inc,http://s3-media1.ak.yelpcdn.com/assets/2/www/img/924a6444ca6c/gfx/blank_biz_medium.gif,Philadelphia,PA,http://www.yelp.com/biz/academic-properties-inc-philadelphia,3,2.5,-75.1879283,39.9575859
137,"34th & Walnut StUniversity CityPhiladelphia, PA 19176",Magic Carpet,http://s3-media2.ak.yelpcdn.com/bphoto/xjvzFWff-E3v8BZ-aehkhA/ms.jpg,Philadelphia,PA,http://www.yelp.com/biz/magic-carpet-philadelphia,69,4.5,-75.1920992,39.9528123
138,"33rd and Arch StPowelton VillagePhiladelphia, PA 19104",Street Food Philly,http://s3-media3.ak.yelpcdn.com/bphoto/Va5hNqqSJau4PgN0k_SGKw/ms.jpg,Philadelphia,PA,http://www.yelp.com/biz/street-food-philly-philadelphia,5,4.5,-75.1890822,39.9576111
139,"University of Pennsylvania3728 Spruce StUniversity CityPhiladelphia, PA 19104",Saladworks,http://s3-media4.ak.yelpcdn.com/bphoto/z3M8JvzrkQh1ktuutODS0Q/ms.jpg,Philadelphia,PA,http://www.yelp.com/biz/saladworks-philadelphia-10,14,2,-75.1984913,39.951159
140,"3800 Sansom StUniversity CityPhiladelphia, PA 19104",Tacos Don Memo,http://s3-media2.ak.yelpcdn.com/bphoto/rUj_9IpGyPsUJ3GuY_vGLA/ms.jpg,Philadelphia,PA,http://www.yelp.com/biz/tacos-don-memo-philadelphia,98,4.5,-75.1986503,39.9544007
141,"3300 Arch StPowelton VillagePhiladelphia, PA 19104",Cupcake Carnivale,http://s3-media4.ak.yelpcdn.com/bphoto/RUsSl3C-Em6XJYl4l99rQg/ms.jpg,Philadelphia,PA,http://www.yelp.com/biz/cupcake-carnivale-philadelphia,3,4.5,-75.189549,39.957401
142,"33rd St and Spruce StUniversity CityPhiladelphia, PA 19104",Tyson Bees Food Truck,http://s3-media1.ak.yelpcdn.com/bphoto/49tkQdBnazsi7fhmvFP1HA/ms.jpg,Philadelphia,PA,http://www.yelp.com/biz/tyson-bees-food-truck-philadelphia,94,3.5,-75.1917188,39.9503316
143,"3900 Chestnut StUniversity CityPhiladelphia, PA 19104",Hong Kong Cafe,http://s3-media1.ak.yelpcdn.com/assets/2/www/img/924a6444ca6c/gfx/blank_biz_medium.gif,Philadelphia,PA,http://www.yelp.com/biz/hong-kong-cafe-philadelphia,6,3,-75.2001318,39.9549304
144,"3935 Chestnut StUniversity CityPhiladelphia, PA 19104",University City Center For Eye Care,http://s3-media1.ak.yelpcdn.com/assets/2/www/img/924a6444ca6c/gfx/blank_biz_medium.gif,Philadelphia,PA,http://www.yelp.com/biz/university-city-center-for-eye-care-philadelphia,8,4,-75.201434,39.95594
145,"8720 Costa Verde BlvdUniversity CitySan Diego, CA 92122",Iron Orr Fitness,http://s3-media1.ak.yelpcdn.com/assets/2/www/img/924a6444ca6c/gfx/blank_biz_medium.gif,San Diego,CA,http://www.yelp.com/biz/iron-orr-fitness-san-diego,2,4.5,-117.218687,32.870225
146,"4040 Locust StUniversity CityPhiladelphia, PA 19104",Strikes Bowling Lounge,http://s3-media4.ak.yelpcdn.com/bphoto/mPODMTBJp0nDI31sckSkqw/ms.jpg,Philadelphia,PA,http://www.yelp.com/biz/strikes-bowling-lounge-philadelphia,14,3.5,-75.204796,39.952878
147,"3600 Market St Ste G1Powelton VillagePhiladelphia, PA 19104",Lincoln Technical Institute,http://s3-media1.ak.yelpcdn.com/assets/2/www/img/924a6444ca6c/gfx/blank_biz_medium.gif,Philadelphia,PA,http://www.yelp.com/biz/lincoln-technical-institute-philadelphia-2,2,3,-75.194171,39.956064
148,"3914 Spruce StUniversity CityPhiladelphia, PA 19104",Pi Lam,http://s3-media4.ak.yelpcdn.com/bphoto/QX6LkO1KSCTdRk3SWvsUqg/ms.jpg,Philadelphia,PA,http://www.yelp.com/biz/pi-lam-philadelphia,10,4.5,-75.2016381,39.9510888
149,"3800 Locust WalkUniversity CityPhiladelphia, PA 19104",1920 Commons,http://s3-media1.ak.yelpcdn.com/bphoto/ZSvyqU5m4t5HEFtsce4v4w/ms.jpg,Philadelphia,PA,http://www.yelp.com/biz/1920-commons-philadelphia,3,2.5,-75.1993713,39.9524864
150,"38th & Walnut StUniversity CityPhiladelphia, PA 19104",Sugar Philly Truck,http://s3-media1.ak.yelpcdn.com/bphoto/1rdERFvPzbg7aE1Zos84tQ/ms.jpg,Philadelphia,PA,http://www.yelp.com/biz/sugar-philly-truck-philadelphia,61,4.5,-75.1987871,39.9536482
151,"3945 Chestnut StUniversity CityPhiladelphia, PA 19104",Dhyana Yoga,http://s3-media2.ak.yelpcdn.com/bphoto/mj_zyo7Vhrk78UtR6XkXUw/ms.jpg,Philadelphia,PA,http://www.yelp.com/biz/dhyana-yoga-philadelphia-2,10,3.5,-75.200965,39.955612
152,"4212 Chestnut Street3rd FloorUniversity CityPhiladelphia, PA 19104",Scribe Video Center,http://s3-media1.ak.yelpcdn.com/assets/2/www/img/924a6444ca6c/gfx/blank_biz_medium.gif,Philadelphia,PA,http://www.yelp.com/biz/scribe-video-center-philadelphia-2,2,3.5,-75.2067466,39.9560867
153,"38th St and Sansom StUniversity CityPhiladelphia, PA 19195",KoJa,http://s3-media4.ak.yelpcdn.com/bphoto/RadLbD3BFDRDjNYFCSbIbg/ms.jpg,Philadelphia,PA,http://www.yelp.com/biz/koja-philadelphia,51,4,-75.1986355,39.9543996
154,"3800 La Jolla Village DrUniversity CitySan Diego, CA 92037",La Jolla Village Tennis Club,http://s3-media1.ak.yelpcdn.com/assets/2/www/img/924a6444ca6c/gfx/blank_biz_medium.gif,San Diego,CA,http://www.yelp.com/biz/la-jolla-village-tennis-club-san-diego,2,3.5,-117.2231775,32.8708872
155,"3950 Mahaila AveUniversity CitySan Diego, CA 92122",Motivated Military Movers,http://s3-media3.ak.yelpcdn.com/bphoto/PVKfG4UV4q9TSUycfACogg/ms.jpg,San Diego,CA,http://www.yelp.com/biz/motivated-military-movers-san-diego,17,5,-117.221637,32.869603
156,"3624 Lancaster AvePowelton VillagePhiladelphia, PA 19104",Polish Nail Salon,http://s3-media2.ak.yelpcdn.com/bphoto/m5bCHYFcBcMoFGHKyt7y9Q/ms.jpg,Philadelphia,PA,http://www.yelp.com/biz/polish-nail-salon-philadelphia,10,2,-75.1939299,39.9587408
157,"3400 Civic Center Blvd.University CityPhiladelphia, PA 19104",Philly Pretzel Factory,http://s3-media1.ak.yelpcdn.com/assets/2/www/img/924a6444ca6c/gfx/blank_biz_medium.gif,Philadelphia,PA,http://www.yelp.com/biz/philly-pretzel-factory-philadelphia-3,4,4.5,-75.1934743,39.9475112
158,"3608 Lancaster AvePowelton VillagePhiladelphia, PA 19104",Doctor Cycles,http://s3-media2.ak.yelpcdn.com/bphoto/266_rzhPwtA3NQUeYnzJJw/ms.jpg,Philadelphia,PA,http://www.yelp.com/biz/doctor-cycles-philadelphia,6,3.5,-75.1940423,39.9586555
159,"3601 Walnut StUniversity CityPhiladelphia, PA 19104",Penn Bookstore,http://s3-media2.ak.yelpcdn.com/bphoto/sf2SOAsjvT78qIWZThZMhw/ms.jpg,Philadelphia,PA,http://www.yelp.com/biz/penn-bookstore-philadelphia,25,3.5,-75.195027,39.95336
160,"8895 Caminto Plz CentroUniversity CitySan Diego, CA 92122",Villa Vicenza,http://s3-media4.ak.yelpcdn.com/bphoto/QP-csxNasTTsHqxY9klePg/ms.jpg,San Diego,CA,http://www.yelp.com/biz/villa-vicenza-san-diego,10,2,-117.2268677,32.86632314
161,"36th & MarketPowelton VillagePhiladelphia, PA 19104",Halal Gyro King,http://s3-media1.ak.yelpcdn.com/assets/2/www/img/924a6444ca6c/gfx/blank_biz_medium.gif,Philadelphia,PA,http://www.yelp.com/biz/halal-gyro-king-philadelphia-2,2,4.5,-75.1941485,39.956188
162,"S 33rd St and Walnut StUniversity CityPhiladelphia, PA 19104",Dimitrio & Frida's Food Cart,http://s3-media1.ak.yelpcdn.com/assets/2/www/img/924a6444ca6c/gfx/blank_biz_medium.gif,Philadelphia,PA,http://www.yelp.com/biz/dimitrio-and-fridas-food-cart-philadelphia,3,5,-75.190043,39.95255
163,"138 S 34th StUniversity CityPhiladelphia, PA 19104",Adolf Biecker Studio,http://s3-media2.ak.yelpcdn.com/bphoto/IJy2QnvHX2TnA2jnR_HvSA/ms.jpg,Philadelphia,PA,http://www.yelp.com/biz/adolf-biecker-studio-philadelphia,21,3.5,-75.191672,39.953352
164,"4008 Market StUniversity CityPhiladelphia, PA 19104",Hamilton Restaurant,http://s3-media4.ak.yelpcdn.com/bphoto/YRvHt_MTv0V3uKO4BoT4Hg/ms.jpg,Philadelphia,PA,http://www.yelp.com/biz/hamilton-restaurant-philadelphia,2,3.5,-75.2023931,39.9570824
165,"4002 Market StUniversity CityPhiladelphia, PA 19104",Crown Fried Chicken,http://s3-media3.ak.yelpcdn.com/bphoto/F7rYDqeUL3pdKBA_eOiebw/ms.jpg,Philadelphia,PA,http://www.yelp.com/biz/crown-fried-chicken-philadelphia-18,3,3.5,-75.20223,39.957016
166,"4211 Chestnut StUniversity CityPhiladelphia, PA 19104",Toviah Thrift Shop,http://s3-media1.ak.yelpcdn.com/assets/2/www/img/924a6444ca6c/gfx/blank_biz_medium.gif,Philadelphia,PA,http://www.yelp.com/biz/toviah-thrift-shop-philadelphia,6,3,-75.2071712,39.9563
167,"3608 Chestnut StUniversity CityPhiladelphia, PA 19104",Han-Wool,http://s3-media2.ak.yelpcdn.com/bphoto/ZkNu4uh5i8xfHFrQPGD83A/ms.jpg,Philadelphia,PA,http://www.yelp.com/biz/han-wool-philadelphia,53,2,-75.1950864,39.9546558
168,"4017 Walnut StUniversity CityPhiladelphia, PA 19104",Slought Foundation,http://s3-media1.ak.yelpcdn.com/assets/2/www/img/924a6444ca6c/gfx/blank_biz_medium.gif,Philadelphia,PA,http://www.yelp.com/biz/slought-foundation-philadelphia,2,5,-75.2035178,39.9542917
169,"3351 Nobel DrUniversity CityLa Jolla, CA 92037",Islands,http://s3-media2.ak.yelpcdn.com/bphoto/S7hVuQqQM-o0XWVQ4KsUjA/ms.jpg,La Jolla,CA,http://www.yelp.com/biz/islands-la-jolla,150,3,-117.2295623,32.8681382
170,"8930 University Ctr LnUniversity CitySan Diego, CA 92122",The Spa at the Sporting Club,http://s3-media3.ak.yelpcdn.com/bphoto/2S5WBeC_DEuXCxkvNxqcEw/ms.jpg,San Diego,CA,http://www.yelp.com/biz/the-spa-at-the-sporting-club-san-diego,5,4,-117.2261106,32.8702939
171,"3401 Walnut StUniversity CityPhiladelphia, PA 19104",Taco Bell and A&W,http://s3-media1.ak.yelpcdn.com/assets/2/www/img/924a6444ca6c/gfx/blank_biz_medium.gif,Philadelphia,PA,http://www.yelp.com/biz/taco-bell-and-a-and-w-philadelphia,6,1.5,-75.193026,39.952998
172,"7474 Charmant DrLa JollaSan Diego, CA 92122",The Church of Jesus Christ of Latter-Day Saints,http://s3-media3.ak.yelpcdn.com/bphoto/x5XhXoQ06vN0WQSQ01GY5Q/ms.jpg,San Diego,CA,http://www.yelp.com/biz/the-church-of-jesus-christ-of-latter-day-saints-san-diego-19,35,2.5,-117.228756,32.866179
173,"3260 South StUniversity CityPhiladelphia, PA 19104",Penn Museum,http://s3-media3.ak.yelpcdn.com/bphoto/6dAxPu-4d4RwmlQ8uFqdUQ/ms.jpg,Philadelphia,PA,http://www.yelp.com/biz/penn-museum-philadelphia,40,4.5,-75.1916742,39.9497575
174,"3939 Chestnut StUniversity CityPhiladelphia, PA 19104",Thai Singha House,http://s3-media4.ak.yelpcdn.com/bphoto/qycQgT_0yQl1akK18Rpkdw/ms.jpg,Philadelphia,PA,http://www.yelp.com/biz/thai-singha-house-philadelphia,70,3,-75.2018442,39.9557155
175,"4101 Baltimore AveUniversity CityPhiladelphia, PA 19104",New Horizons Housing,http://s3-media1.ak.yelpcdn.com/assets/2/www/img/924a6444ca6c/gfx/blank_biz_medium.gif,Philadelphia,PA,http://www.yelp.com/biz/new-horizons-housing-philadelphia-2,6,3,-75.205765,39.949957
176,"4014 Walnut StUniversity CityPhiladelphia, PA 19104",The Rotunda,http://s3-media4.ak.yelpcdn.com/bphoto/zeZ_nm6WArW_HV9PqyH4zg/ms.jpg,Philadelphia,PA,http://www.yelp.com/biz/the-rotunda-philadelphia,11,4.5,-75.2036127,39.9542405
177,"3401 Market StreetPowelton VillagePhiladelphia, PA 19104",Penn Dental Center at University City,http://s3-media1.ak.yelpcdn.com/assets/2/www/img/924a6444ca6c/gfx/blank_biz_medium.gif,Philadelphia,PA,http://www.yelp.com/biz/penn-dental-center-at-university-city-philadelphia,2,4.5,-75.1914835,39.9558626
178,"3730 Spruce StUniversity CityPhiladelphia, PA 19104",Penn Campus Hair Skin & Nail Salon,http://s3-media1.ak.yelpcdn.com/assets/2/www/img/924a6444ca6c/gfx/blank_biz_medium.gif,Philadelphia,PA,http://www.yelp.com/biz/penn-campus-hair-skin-and-nail-salon-philadelphia,11,2.5,-75.1985616,39.9510887
179,"37th Spruce StUniversity CityPhiladelphia, PA 19104",Lovash Indian Cart,http://s3-media1.ak.yelpcdn.com/assets/2/www/img/924a6444ca6c/gfx/blank_biz_medium.gif,Philadelphia,PA,http://www.yelp.com/biz/lovash-indian-cart-philadelphia,3,3,-75.19643784,39.95092132
180,"51 N 39th StSte 340Powelton VillagePhiladelphia, PA 19104",Gynecology Specialists of Philadelphia,http://s3-media2.ak.yelpcdn.com/bphoto/vCA_ht5odGNOB0jJEp6COQ/ms.jpg,Philadelphia,PA,http://www.yelp.com/biz/gynecology-specialists-of-philadelphia-philadelphia-2,11,3.5,-75.1995344,39.9572391
181,"40th Street and Market StreetUniversity CityPhiladelphia, PA 19102",Gil's Discount Inc,http://s3-media1.ak.yelpcdn.com/assets/2/www/img/924a6444ca6c/gfx/blank_biz_medium.gif,Philadelphia,PA,http://www.yelp.com/biz/gils-discount-inc-philadelphia,2,3,-75.201964,39.9571658
182,"3200 Chestnut StUniversity CityPhiladelphia, PA 19104",Ecco Qui,http://s3-media3.ak.yelpcdn.com/bphoto/A5Ek28D9CMogV6tL9PbPug/ms.jpg,Philadelphia,PA,http://www.yelp.com/biz/ecco-qui-philadelphia,3,2.5,-75.188695,39.953414
183,"Sansom Commons3661 Walnut StUniversity CityPhiladelphia, PA 19104",American Apparel,http://s3-media4.ak.yelpcdn.com/bphoto/TeqA8Gru9AOHH1lSu5yB5w/ms.jpg,Philadelphia,PA,http://www.yelp.com/biz/american-apparel-philadelphia-2,9,3.5,-75.1963692,39.9533559
184,"240 S 40th StUniversity CityPhiladelphia, PA 19195",Bucks County Coffee Co,http://s3-media1.ak.yelpcdn.com/bphoto/JyEQ_csa6-e3-uDChYl5lg/ms.jpg,Philadelphia,PA,http://www.yelp.com/biz/bucks-county-coffee-co-philadelphia-4,12,3,-75.2029089,39.9527438
185,"201 S 40th StUniversity CityPhiladelphia, PA 19104",Free Library Of Philadelphia,http://s3-media1.ak.yelpcdn.com/bphoto/QX0CFq2x47ptaSrod0imxA/ms.jpg,Philadelphia,PA,http://www.yelp.com/biz/free-library-of-philadelphia-philadelphia-5,8,3.5,-75.2025937,39.9540857
186,"40th and Walnut StreetUniversity CityPhiladelphia, PA 19104",Marbar,http://s3-media4.ak.yelpcdn.com/bphoto/6vlQeYeVjAS6i3BLivtWlA/ms.jpg,Philadelphia,PA,http://www.yelp.com/biz/marbar-philadelphia,3,3.5,-75.2025821,39.9541174
187,"38th St & Spruce StUniversity CityPhiladelphia, PA 19195",Bui's,http://s3-media1.ak.yelpcdn.com/bphoto/kY2fqwcUq02_gD_Aymm5hg/ms.jpg,Philadelphia,PA,http://www.yelp.com/biz/buis-philadelphia,45,4.5,-75.1991465,39.9512588
188,"4002 Spruce StUniversity CityPhiladelphia, PA 19104",Nara Japanese Restaurant,http://s3-media1.ak.yelpcdn.com/bphoto/BfNS1ZOXP6ujschtpxlmnw/ms.jpg,Philadelphia,PA,http://www.yelp.com/biz/nara-japanese-restaurant-philadelphia,21,2,-75.2033532,39.9516655
189,"40th and LocustUniversity CityPhiladelphia, PA 19195",Rami's,http://s3-media2.ak.yelpcdn.com/bphoto/ysSoalRLFY1npKN-6ND6og/ms.jpg,Philadelphia,PA,http://www.yelp.com/biz/ramis-philadelphia,16,4.5,-75.2028385,39.9529565
190,"3901 Chestnut StUniversity CityPhiladelphia, PA 19104",Boston Chicken,http://s3-media3.ak.yelpcdn.com/bphoto/ayyDTN2YQQEJZvtICh4p6w/ms.jpg,Philadelphia,PA,http://www.yelp.com/biz/boston-chicken-philadelphia-3,4,2,-75.2001507,39.9554515
191,"3701 Walnut StUniversity CityPhiladelphia, PA 19104",David Pottruck Health and Fitness Center,http://s3-media1.ak.yelpcdn.com/bphoto/kN7VsUMxZCd0FX59HDOo7g/ms.jpg,Philadelphia,PA,http://www.yelp.com/biz/david-pottruck-health-and-fitness-center-philadelphia,16,4,-75.197289,39.954109
192,"4200 Ludlow StUniversity CityPhiladelphia, PA 19104",Lei's Auto & Collision Service Center,http://s3-media3.ak.yelpcdn.com/bphoto/oicI3PWnjhzJm4t_LyZfnQ/ms.jpg,Philadelphia,PA,http://www.yelp.com/biz/leis-auto-and-collision-service-center-philadelphia,12,4,-75.2062665,39.956841
193,"2955 Market StUniversity CityPhiladelphia, PA 19104",Pasta Fiesta,http://s3-media3.ak.yelpcdn.com/bphoto/i7HcJrNJcR8klRcDGZ3V_Q/ms.jpg,Philadelphia,PA,http://www.yelp.com/biz/pasta-fiesta-philadelphia,3,3,-75.185108,39.954622
194,"Ludlow StUniversity CityPhiladelphia, PA 19104",T & S Food Truck,http://s3-media1.ak.yelpcdn.com/assets/2/www/img/924a6444ca6c/gfx/blank_biz_medium.gif,Philadelphia,PA,http://www.yelp.com/biz/t-and-s-food-truck-philadelphia,2,4.5,-75.1861167,39.95437559
195,"Powelton VillagePhiladelphia, PA 19104",University Movers,http://s3-media1.ak.yelpcdn.com/assets/2/www/img/924a6444ca6c/gfx/blank_biz_medium.gif,Philadelphia,PA,http://www.yelp.com/biz/university-movers-philadelphia,3,2.5,-75.1953934,39.9583587
196,"3901 Walnut StUniversity CityPhiladelphia, PA 19104",Philly Diner,http://s3-media1.ak.yelpcdn.com/bphoto/frFwmNvfnCPX1sbAQYieWA/ms.jpg,Philadelphia,PA,http://www.yelp.com/biz/philly-diner-philadelphia,63,2,-75.2003556,39.9539891
197,"51 N. 39th StreetPowelton VillagePhiladelphia, PA 19104",Penn Presbyterian Medical Center,http://s3-media1.ak.yelpcdn.com/bphoto/bj0PICeDZ6WcnXaKgorLTw/ms.jpg,Philadelphia,PA,http://www.yelp.com/biz/penn-presbyterian-medical-center-philadelphia,3,3.5,-75.199526,39.9572244
198,"University CityPhiladelphia, PA",Dner en Blanc,http://s3-media1.ak.yelpcdn.com/bphoto/g6_rcEYE8yH6kVOo5bAPqQ/ms.jpg,Philadelphia,PA,http://www.yelp.com/biz/d%C3%AEner-en-blanc-philadelphia,2,5,-75.18316,39.95526
199,"3451 Walnut StUniversity CityPhiladelphia, PA 19104",University City District,http://s3-media1.ak.yelpcdn.com/assets/2/www/img/924a6444ca6c/gfx/blank_biz_medium.gif,Philadelphia,PA,http://www.yelp.com/biz/university-city-district-philadelphia,4,3.5,-75.19389,39.953115
200,"8910 University Center Ln, Ste 200University CitySan Diego, CA 92122",Ameriprise Financial Advisors,http://s3-media1.ak.yelpcdn.com/assets/2/www/img/924a6444ca6c/gfx/blank_biz_medium.gif,San Diego,CA,http://www.yelp.com/biz/ameriprise-financial-advisors-san-diego-12,2,1.5,-117.226609,32.870847
201,"3655 Nobel DrSte 130University CitySan Diego, CA 92122",Advanced Ophthalmology Institute,http://s3-media4.ak.yelpcdn.com/bphoto/u-0r_N0jnHk-jjZqwDgZNA/ms.jpg,San Diego,CA,http://www.yelp.com/biz/advanced-ophthalmology-institute-san-diego,5,3.5,-117.227913,32.86769
202,"3621 Walnut StUniversity CityPhiladelphia, PA 19104",Philadelphia Runner,http://s3-media3.ak.yelpcdn.com/bphoto/n7eYXK9ZOsU-7Colv-g41A/ms.jpg,Philadelphia,PA,http://www.yelp.com/biz/philadelphia-runner-philadelphia-3,9,4.5,-75.1960202,39.9533125
203,"3505 Lancaster AvePowelton VillagePhiladelphia, PA 19104",Mokas Mediterranean Restaurant,http://s3-media2.ak.yelpcdn.com/bphoto/W4orUGeJli_oDYxwGAuUtA/ms.jpg,Philadelphia,PA,http://www.yelp.com/biz/mokas-mediterranean-restaurant-philadelphia,6,2,-75.1928662,39.9583142
204,"38th St and Spruce StUniversity CityPhiladelphia, PA 19104",Mojo Gourmet Coffee,http://s3-media1.ak.yelpcdn.com/assets/2/www/img/924a6444ca6c/gfx/blank_biz_medium.gif,Philadelphia,PA,http://www.yelp.com/biz/mojo-gourmet-coffee-philadelphia,2,4,-75.1992615,39.9512766
205,"220 S 40th StUniversity CityPhiladelphia, PA 19104",The Bridge: Cinema de Lux,http://s3-media3.ak.yelpcdn.com/bphoto/iz-AqbaMFcvSjDefJOyDZA/ms.jpg,Philadelphia,PA,http://www.yelp.com/biz/the-bridge-cinema-de-lux-philadelphia,74,3,-75.203201,39.9540162
206,"3714 Spruce StUniversity CityPhiladelphia, PA 19104",Beijing Restaurant,http://s3-media3.ak.yelpcdn.com/bphoto/38A6VTKWyt5KUcphuBscww/ms.jpg,Philadelphia,PA,http://www.yelp.com/biz/beijing-restaurant-philadelphia,61,3,-75.1981223,39.951033
207,"3707 Nobel DriveUniversity CitySan Diego, CA 92122",Salon Nobel,http://s3-media1.ak.yelpcdn.com/assets/2/www/img/924a6444ca6c/gfx/blank_biz_medium.gif,San Diego,CA,http://www.yelp.com/biz/salon-nobel-san-diego,2,5,-117.2269106,32.8673414
208,"3600 Sansom StUniversity CityPhiladelphia, PA 19104",Penne Restaurant & Wine Bar,http://s3-media4.ak.yelpcdn.com/bphoto/zsc0j1MI186a8d3TggbW3A/ms.jpg,Philadelphia,PA,http://www.yelp.com/biz/penne-restaurant-and-wine-bar-philadelphia-3,28,2.5,-75.1956868,39.9538657
209,"3711 Market StPowelton VillagePhiladelphia, PA 19104",MidAtlantic Restaurant & Tap Room,http://s3-media1.ak.yelpcdn.com/bphoto/OAUK_ZWajH3yCa8FMXKOug/ms.jpg,Philadelphia,PA,http://www.yelp.com/biz/midatlantic-restaurant-and-tap-room-philadelphia,76,3.5,-75.196958,39.956641
210,"7655 Palmilla DrLa JollaSan Diego, CA 92122",La Regencia,http://s3-media3.ak.yelpcdn.com/bphoto/gMp7PQAurtsTcwMru8qq8g/ms.jpg,San Diego,CA,http://www.yelp.com/biz/la-regencia-san-diego,42,1.5,-117.2245768,32.8634764
211,"129 S 30th StUniversity CityPhiladelphia, PA 19104",Old Nelson Food Company,http://s3-media1.ak.yelpcdn.com/assets/2/www/img/924a6444ca6c/gfx/blank_biz_medium.gif,Philadelphia,PA,http://www.yelp.com/biz/old-nelson-food-company-philadelphia-6,3,4,-75.1839006,39.9525251
212,"33 S 40th StUniversity CityPhiladelphia, PA 19104",DP Dough,http://s3-media1.ak.yelpcdn.com/bphoto/2QyTJwUw3rEm5_stpbYudQ/ms.jpg,Philadelphia,PA,http://www.yelp.com/biz/dp-dough-philadelphia,30,3.5,-75.2021371,39.9561713
213,"2955 Market StUniversity CityPhiladelphia, PA 19104",Delilah's Southern Cafe,http://s3-media2.ak.yelpcdn.com/bphoto/-buHs7Lipe2Airsc-3JFbg/ms.jpg,Philadelphia,PA,http://www.yelp.com/biz/delilahs-southern-cafe-philadelphia-4,9,2,-75.182487,39.954886
214,"36th & Spruce StUniversity CityPhiladelphia, PA 19104",Magic Carpet Foods,http://s3-media1.ak.yelpcdn.com/assets/2/www/img/924a6444ca6c/gfx/blank_biz_medium.gif,Philadelphia,PA,http://www.yelp.com/biz/magic-carpet-foods-philadelphia,8,4.5,-75.1953255,39.950789
215,"3743 Walnut StUniversity CityPhiladelphia, PA 19104",Joseph Anthony Hairstyling,http://s3-media3.ak.yelpcdn.com/bphoto/i1B2Ag_0I3sB8-uTgRkE8Q/ms.jpg,Philadelphia,PA,http://www.yelp.com/biz/joseph-anthony-hairstyling-philadelphia,13,2.5,-75.1983,39.9537045
216,"37th St and Spruce StUniversity CityPhiladelphia, PA 19104",MexiPhilly Food Cart,http://s3-media1.ak.yelpcdn.com/assets/2/www/img/924a6444ca6c/gfx/blank_biz_medium.gif,Philadelphia,PA,http://www.yelp.com/biz/mexiphilly-food-cart-philadelphia,9,3,-75.197243,39.951021
217,"8930 University Center LnUniversity CitySan Diego, CA 92122",The Sporting Club,http://s3-media2.ak.yelpcdn.com/bphoto/7mxNx9ngMBZFjfr7ImNRzQ/ms.jpg,San Diego,CA,http://www.yelp.com/biz/the-sporting-club-san-diego,43,4,-117.226195,32.8702956
218,"3735 Walnut StUniversity CityPhiladelphia, PA 19104",TD Bank,http://s3-media1.ak.yelpcdn.com/bphoto/DxOBIu6Y6haQ2vLEjJbpDw/ms.jpg,Philadelphia,PA,http://www.yelp.com/biz/td-bank-philadelphia-7,4,3,-75.1980441,39.9536829
219,"3945 Chestnut StUniversity CityPhiladelphia, PA 19104",Distrito,http://s3-media1.ak.yelpcdn.com/bphoto/0FRbkiPOs2i40JBigtbTvA/ms.jpg,Philadelphia,PA,http://www.yelp.com/biz/distrito-philadelphia-2,511,4,-75.2019323,39.9556202
220,"3401 Walnut StUniversity CityPhiladelphia, PA 19104",Quizno's Sub,http://s3-media1.ak.yelpcdn.com/assets/2/www/img/924a6444ca6c/gfx/blank_biz_medium.gif,Philadelphia,PA,http://www.yelp.com/biz/quiznos-sub-philadelphia-4,6,2.5,-75.19206,39.952946
221,"4201 Market StUniversity CityPhiladelphia, PA 19104",Stacy's Pizza,http://s3-media1.ak.yelpcdn.com/assets/2/www/img/924a6444ca6c/gfx/blank_biz_medium.gif,Philadelphia,PA,http://www.yelp.com/biz/stacys-pizza-philadelphia,12,3.5,-75.2062376,39.9578302
222,"8910 University Ctr LnSte 648University CitySan Diego, CA 92122",Shaft Medical San Diego,http://s3-media1.ak.yelpcdn.com/bphoto/QujtmILlOGsn70an7mrRzw/ms.jpg,San Diego,CA,http://www.yelp.com/biz/shaft-medical-san-diego-san-diego-3,27,3.5,-117.2268717,32.8709781
223,"3630 Lancaster AvePowelton VillagePhiladelphia, PA 19104",Lemon Grass Thai Restaurant,http://s3-media1.ak.yelpcdn.com/bphoto/R3P0fd3dLnt5_OY9F9zahQ/ms.jpg,Philadelphia,PA,http://www.yelp.com/biz/lemon-grass-thai-restaurant-philadelphia,93,3.5,-75.1942603,39.9588966
224,"3777 La Jolla Village DrUniversity CityLa Jolla, CA 92037",Ace Parking Inc,http://s3-media1.ak.yelpcdn.com/assets/2/www/img/924a6444ca6c/gfx/blank_biz_medium.gif,La Jolla,CA,http://www.yelp.com/biz/ace-parking-inc-la-jolla,3,1,-117.2256427,32.8709206
225,"3600 Market StUniversity CityPhiladelphia, PA 19104",Pennsylvania Optometrics Vision Center,http://s3-media1.ak.yelpcdn.com/assets/2/www/img/924a6444ca6c/gfx/blank_biz_medium.gif,Philadelphia,PA,http://www.yelp.com/biz/pennsylvania-optometrics-vision-center-philadelphia-2,4,4,-75.194665,39.955806
226,"3801 Chestnut StUniversity CityPhiladelphia, PA 19104",Coco Bongo,http://s3-media1.ak.yelpcdn.com/assets/2/www/img/924a6444ca6c/gfx/blank_biz_medium.gif,Philadelphia,PA,http://www.yelp.com/biz/coco-bongo-philadelphia,2,3,-75.198948,39.955642
227,"3900 Chestnut StUniversity CityPhiladelphia, PA 19104",O'Hara's Fish House,http://s3-media1.ak.yelpcdn.com/assets/2/www/img/924a6444ca6c/gfx/blank_biz_medium.gif,Philadelphia,PA,http://www.yelp.com/biz/o-haras-fish-house-philadelphia,2,2.5,-75.2001318,39.9549304
228,"N 30th St & Market StUniversity CityPhiladelphia, PA 19104",Bolt Bus,http://s3-media3.ak.yelpcdn.com/bphoto/Nq6iDA7V0EDvIpj1Ah9iOA/ms.jpg,Philadelphia,PA,http://www.yelp.com/biz/bolt-bus-philadelphia,111,3.5,-75.1832756,39.9548238
229,"Locust Walk/Hunstman Building3730 Walnut StUniversity CityPhiladelphia, PA 19104",Au Bon Pain,http://s3-media1.ak.yelpcdn.com/assets/2/www/img/924a6444ca6c/gfx/blank_biz_medium.gif,Philadelphia,PA,http://www.yelp.com/biz/au-bon-pain-philadelphia-12,6,2.5,-75.1982403,39.9531748
230,"4016 Market StUniversity CityPhiladelphia, PA 19104",Nancy's Le Nails,http://s3-media3.ak.yelpcdn.com/bphoto/VfIWFCSLPAM8PtjtMzqjAw/ms.jpg,Philadelphia,PA,http://www.yelp.com/biz/nancys-le-nails-philadelphia,9,3,-75.2027046,39.9571023
231,"3401 Walnut StUniversity CityPhiladelphia, PA 19104",Starbucks,http://s3-media1.ak.yelpcdn.com/bphoto/RVDxUYofIl_NJdKM4Zhb4A/ms.jpg,Philadelphia,PA,http://www.yelp.com/biz/starbucks-philadelphia-2,13,3,-75.193026,39.952998
232,"4023 Locust StUniversity CityPhiladelphia, PA 19104",Realty World Properties Inc,http://s3-media1.ak.yelpcdn.com/assets/2/www/img/924a6444ca6c/gfx/blank_biz_medium.gif,Philadelphia,PA,http://www.yelp.com/biz/realty-world-properties-inc-philadelphia,4,2,-75.203615,39.953213
233,"4004 Spruce StUniversity CityPhiladelphia, PA 19104",Cream & Sugar,http://s3-media3.ak.yelpcdn.com/bphoto/ldLNvzUAONLuZGkcwNKFZA/ms.jpg,Philadelphia,PA,http://www.yelp.com/biz/cream-and-sugar-philadelphia,11,3,-75.203412,39.951536
234,"268 S 38th StUniversity CityPhiladelphia, PA 19104",HubBub Coffee,http://s3-media1.ak.yelpcdn.com/bphoto/HvjakHDfknboiU0kwohs-Q/ms.jpg,Philadelphia,PA,http://www.yelp.com/biz/hubbub-coffee-philadelphia,12,4,-75.19922733,39.95218791
235,"4013 Walnut StUniversity CityPhiladelphia, PA 19104",Metropolitan Bakery,http://s3-media2.ak.yelpcdn.com/bphoto/0HdUnkqSSDhb77YDfpA8ew/ms.jpg,Philadelphia,PA,http://www.yelp.com/biz/metropolitan-bakery-philadelphia-6,44,3.5,-75.2030039,39.9541731
236,"3409 Walnut StUniversity CityPhiladelphia, PA 19104",Famous Famiglia Pizzeria,http://s3-media1.ak.yelpcdn.com/assets/2/www/img/924a6444ca6c/gfx/blank_biz_medium.gif,Philadelphia,PA,http://www.yelp.com/biz/famous-famiglia-pizzeria-philadelphia,7,2,-75.1930765,39.9529537
237,"4006 Chestnut StUniversity CityPhiladelphia, PA 19104",Pattaya Grill,http://s3-media4.ak.yelpcdn.com/bphoto/fult_ckrgmnBR7Fsp-pYPA/ms.jpg,Philadelphia,PA,http://www.yelp.com/biz/pattaya-grill-philadelphia,119,3.5,-75.2026653,39.9555729
238,"4043 Walnut StUniversity CityPhiladelphia, PA 19104",Campus Apartments,http://s3-media3.ak.yelpcdn.com/bphoto/QuCa2Mo7S6Dg0QwEp60t7A/ms.jpg,Philadelphia,PA,http://www.yelp.com/biz/campus-apartments-philadelphia,4,1,-75.202825,39.954816
239,"3925 Walnut StUniversity CityPhiladelphia, PA 19104",City Tap House,http://s3-media1.ak.yelpcdn.com/bphoto/0QIhjJezz9WFUGdE1Rq4qA/ms.jpg,Philadelphia,PA,http://www.yelp.com/biz/city-tap-house-philadelphia,251,3.5,-75.2019712,39.9541116
240,"3400 Civic Center BlvdUniversity CityPhiladelphia, PA 19104",Penn Tower Hotel,http://s3-media1.ak.yelpcdn.com/assets/2/www/img/924a6444ca6c/gfx/blank_biz_medium.gif,Philadelphia,PA,http://www.yelp.com/biz/penn-tower-hotel-philadelphia,3,2.5,-75.193468,39.9475021
241,"40th St & Spruce StPowelton VillagePhiladelphia, PA 19104",Coup de Taco,http://s3-media4.ak.yelpcdn.com/bphoto/y_leAXeRLjBp-CQm4p6cDg/ms.jpg,Philadelphia,PA,http://www.yelp.com/biz/coup-de-taco-philadelphia,19,4,-75.1953934,39.9583587
242,"3513 Lancaster AvePowelton VillagePhiladelphia, PA 19104",Ed's Buffalo Wings & Pizza,http://s3-media3.ak.yelpcdn.com/bphoto/LoHgx9I5GJjHA4b1vKpI5g/ms.jpg,Philadelphia,PA,http://www.yelp.com/biz/eds-buffalo-wings-and-pizza-philadelphia,38,3,-75.1928223,39.9582825
243,"3432 Sansom StUniversity CityPhiladelphia, PA 19104",La Terrasse,http://s3-media1.ak.yelpcdn.com/bphoto/tQBlWFmX-1zfxTNYgoeFRg/ms.jpg,Philadelphia,PA,http://www.yelp.com/biz/la-terrasse-philadelphia,38,2.5,-75.1932666,39.9537091
244,"3700 Spruce StB15University CityPhiladelphia, PA 19104",Chez Yasmine,http://s3-media1.ak.yelpcdn.com/bphoto/a_b4Ip9Tt8uJfFNVkKS3TQ/ms.jpg,Philadelphia,PA,http://www.yelp.com/biz/chez-yasmine-philadelphia,11,4,-75.1972655,39.9510059
245,"8930 University Ctr LnUniversity CitySan Diego, CA 92122",Meaghan Faragasso,http://s3-media1.ak.yelpcdn.com/assets/2/www/img/924a6444ca6c/gfx/blank_biz_medium.gif,San Diego,CA,http://www.yelp.com/biz/meaghan-faragasso-san-diego,4,4,-117.2261106,32.8702939
246,"3600 Spruce StreetUniversity CityPhiladelphia, PA 19104",Le Anh Chinese Food,http://s3-media1.ak.yelpcdn.com/assets/2/www/img/924a6444ca6c/gfx/blank_biz_medium.gif,Philadelphia,PA,http://www.yelp.com/biz/le-anh-chinese-food-philadelphia,7,2,-75.1953354,39.9507933
247,"110 S 40th StUniversity CityPhiladelphia, PA 19104",MexiCali,http://s3-media3.ak.yelpcdn.com/bphoto/abOZwwFjbcHrdYDFdWbDnw/ms.jpg,Philadelphia,PA,http://www.yelp.com/biz/mexicali-philadelphia,75,3.5,-75.2025174,39.9550131
248,"7568 Charmant DriveUniversity CitySan Diego, CA 92122",Mirada Apartments,http://s3-media1.ak.yelpcdn.com/assets/2/www/img/924a6444ca6c/gfx/blank_biz_medium.gif,San Diego,CA,http://www.yelp.com/biz/mirada-apartments-san-diego,8,2.5,-117.226322,32.866319
249,"8990 University Center LnUniversity CitySan Diego, CA 92122",Truluck's,http://s3-media1.ak.yelpcdn.com/bphoto/VSWlj41yr_LEX1iT22DujQ/ms.jpg,San Diego,CA,http://www.yelp.com/biz/trulucks-san-diego,389,4.5,-117.224207,32.870647
250,"3711 Market StPowelton VillagePhiladelphia, PA 19104",Han Dynasty,http://s3-media2.ak.yelpcdn.com/bphoto/D62uEAhgfFHnkgd2JoYPNQ/ms.jpg,Philadelphia,PA,http://www.yelp.com/biz/han-dynasty-philadelphia-3,43,4,-75.19696045,39.95663834
251,"3929 Sansom StUniversity CityPhiladelphia, PA 19104",The Blarney Stone,http://s3-media3.ak.yelpcdn.com/bphoto/ZlvRKEmLp7HMNqpYDuA5Yg/ms.jpg,Philadelphia,PA,http://www.yelp.com/biz/the-blarney-stone-philadelphia,26,3.5,-75.2010456,39.9547647
252,"31st and LudlowFood Truck RowPowelton VillagePhiladelphia, PA 19104",A & M Halal Food Truck,http://s3-media1.ak.yelpcdn.com/assets/2/www/img/924a6444ca6c/gfx/blank_biz_medium.gif,Philadelphia,PA,http://www.yelp.com/biz/a-and-m-halal-food-truck-philadelphia,5,3.5,-75.1953934,39.9583587
253,"Belladerma Cosmetic Surgery & Skin Care Centre3655 Nobel Dr, Ste 100University CitySan Diego, CA 92122","Dennis Bucko, MD",http://s3-media4.ak.yelpcdn.com/bphoto/efPh5FesFl3vAciiuaprYw/ms.jpg,San Diego,CA,http://www.yelp.com/biz/dennis-bucko-md-san-diego,7,3.5,-117.227913,32.86769
254,"3621 Walnut StUniversity CityPhiladelphia, PA 19104",Messages,http://s3-media1.ak.yelpcdn.com/assets/2/www/img/924a6444ca6c/gfx/blank_biz_medium.gif,Philadelphia,PA,http://www.yelp.com/biz/messages-philadelphia,2,2.5,-75.1961196,39.9532864
255,"3549 Chestnut StUniversity CityPhiladelphia, PA 19104",Sang Kee Noodle House,http://s3-media1.ak.yelpcdn.com/bphoto/qzxW4p-c79pQO_1ggJSG3A/ms.jpg,Philadelphia,PA,http://www.yelp.com/biz/sang-kee-noodle-house-philadelphia,120,3,-75.194077,39.954622
256,"106 S 40th StUniversity CityPhiladelphia, PA 19104",Tandoor India Restaurant,http://s3-media2.ak.yelpcdn.com/bphoto/T7dOVl4KqMC0_WLJO3n8Vg/ms.jpg,Philadelphia,PA,http://www.yelp.com/biz/tandoor-india-restaurant-philadelphia,59,3,-75.202451,39.955103
257,"4002 Chestnut StUniversity CityPhiladelphia, PA 19104",Fatou & Fama,http://s3-media3.ak.yelpcdn.com/bphoto/mcRl7HgwR7axbC11KaaAkA/ms.jpg,Philadelphia,PA,http://www.yelp.com/biz/fatou-and-fama-philadelphia,9,3,-75.202512,39.9555577
258,"3421 Walnut StUniversity CityPhiladelphia, PA 19104",Naked Chocolate Cafe,http://s3-media4.ak.yelpcdn.com/bphoto/mbzKYAeUgvswVW2AqKwUcA/ms.jpg,Philadelphia,PA,http://www.yelp.com/biz/naked-chocolate-cafe-philadelphia-2,33,3.5,-75.1930981,39.9531439
259,"8990 University Center LnUniversity CityLa Jolla, CA 92039",Blue Coral Seafood & Spirits,http://s3-media4.ak.yelpcdn.com/bphoto/NcEhzkgAjV1W4vHHuZbLFg/ms.jpg,La Jolla,CA,http://www.yelp.com/biz/blue-coral-seafood-and-spirits-la-jolla-2,29,4,-117.2247421,32.86996
260,"37th St and Spruce StUpper Quad GatePowelton VillagePhiladelphia, PA 19104",Tang's,http://s3-media4.ak.yelpcdn.com/bphoto/m7djKScHDpg9xW1kOb1thw/ms.jpg,Philadelphia,PA,http://www.yelp.com/biz/tangs-philadelphia,8,4,-75.1953934,39.9583587
261,"3884 Nobel DrUniversity CitySan Diego, CA 92122",The Springs At Pacific Regents,http://s3-media1.ak.yelpcdn.com/assets/2/www/img/924a6444ca6c/gfx/blank_biz_medium.gif,San Diego,CA,http://www.yelp.com/biz/the-springs-at-pacific-regents-san-diego,6,3,-117.2234663,32.8685268
262,"4249 Walnut StUniversity CityPhiladelphia, PA 19104",Makkah Market,http://s3-media1.ak.yelpcdn.com/bphoto/abbH4Bq_sfS2KX-WTz1FPg/ms.jpg,Philadelphia,PA,http://www.yelp.com/biz/makkah-market-philadelphia,23,4,-75.2084697,39.954958
263,"3025 Walnut StUniversity CityPhiladelphia, PA 19104",WXPN Radio,http://s3-media1.ak.yelpcdn.com/bphoto/2TIgsYwSyep0rARwvs2ptg/ms.jpg,Philadelphia,PA,http://www.yelp.com/biz/wxpn-radio-philadelphia,36,4,-75.185114,39.9522059
264,"Market St between 34th & 35thPowelton VillagePhiladelphia, PA 19104",Chewy's Food Truck,http://s3-media3.ak.yelpcdn.com/bphoto/L5HTu6OxjKYiAT0zxkpOXw/ms.jpg,Philadelphia,PA,http://www.yelp.com/biz/chewys-food-truck-philadelphia,27,4,-75.19299388,39.9559849
265,"140 S 36th StUniversity CityPhiladelphia, PA 19104",Cosi,http://s3-media2.ak.yelpcdn.com/bphoto/WUxQrNPzxpm-T3OAmhOpPA/ms.jpg,Philadelphia,PA,http://www.yelp.com/biz/cosi-philadelphia-3,39,2.5,-75.1949352,39.9536174
266,"3603 Walnut StUniversity CityPhiladelphia, PA 19104",Douglas Cosmetics,http://s3-media1.ak.yelpcdn.com/assets/2/www/img/924a6444ca6c/gfx/blank_biz_medium.gif,Philadelphia,PA,http://www.yelp.com/biz/douglas-cosmetics-philadelphia,6,3,-75.1955049,39.9533341
267,"Ludlow and 31st StreetsUniversity CityPhiladelphia, PA 19104",A&M,http://s3-media3.ak.yelpcdn.com/bphoto/52cymD6inWJoChGeWpCT3A/ms.jpg,Philadelphia,PA,http://www.yelp.com/biz/a-and-m-philadelphia,2,5,-75.1855117,39.9542959
268,"8899 University Center LnSte 250University CitySan Diego, CA 92122",Pacific Lipo,http://s3-media2.ak.yelpcdn.com/bphoto/c_lTLyRV4QNFWITfGfB8WQ/ms.jpg,San Diego,CA,http://www.yelp.com/biz/pacific-lipo-san-diego,13,5,-117.227591,32.869844
269,"3925 Walnut StUniversity CityPhiladelphia, PA 19104",CVS/pharmacy,http://s3-media4.ak.yelpcdn.com/bphoto/T8a8k2dw5NkdUNZfRsCZvA/ms.jpg,Philadelphia,PA,http://www.yelp.com/biz/cvs-pharmacy-philadelphia-66,9,2.5,-75.201935,39.954332
270,"3101 Market StUniversity CityPhiladelphia, PA 19104",Philadelphia Parking Authority,http://s3-media2.ak.yelpcdn.com/bphoto/CbcCqsVoSN3cTHbD2FILxw/ms.jpg,Philadelphia,PA,http://www.yelp.com/biz/philadelphia-parking-authority-philadelphia-8,4,1,-75.185505,39.95519
271,"36th and Spruce StUniversity CityPhiladelphia, PA 19104",Lyn's,http://s3-media3.ak.yelpcdn.com/bphoto/8cT2T2FKfh8kDyi6RXDAeQ/ms.jpg,Philadelphia,PA,http://www.yelp.com/biz/lyns-philadelphia-2,7,5,-75.1953255,39.950789
272,"224 S 40th StUniversity CityPhiladelphia, PA 19104",Izzy & Zoe's,http://s3-media2.ak.yelpcdn.com/bphoto/iaHXxcuuuZfJTxAN6mcPKw/ms.jpg,Philadelphia,PA,http://www.yelp.com/biz/izzy-and-zoes-philadelphia,8,3,-75.2028565,39.9533287
273,"228 S 40th StUniversity CityPhiladelphia, PA 19104",US Post Office,http://s3-media2.ak.yelpcdn.com/bphoto/lTAcorGyU0d05vIbtlIYJA/ms.jpg,Philadelphia,PA,http://www.yelp.com/biz/us-post-office-philadelphia-10,9,1.5,-75.2028115,39.9531697
274,"38th And Walnut StUniversity CityPhiladelphia, PA 19104",New York Gyro Truck,http://s3-media2.ak.yelpcdn.com/bphoto/wrKyGV3KarqX_fVyhguYsQ/ms.jpg,Philadelphia,PA,http://www.yelp.com/biz/new-york-gyro-truck-philadelphia-2,5,4,-75.19843476,39.95361339
275,"3813 Chestnut StUniversity CityPhiladelphia, PA 19104",Abner's of University City,http://s3-media2.ak.yelpcdn.com/bphoto/_8txYvoNv8mTeSUcZDKfUg/ms.jpg,Philadelphia,PA,http://www.yelp.com/biz/abners-of-university-city-philadelphia,43,3.5,-75.198879,39.95528
276,"110 S 36th StUniversity CityPhiladelphia, PA 19104",Urban Outfitters,http://s3-media3.ak.yelpcdn.com/bphoto/6XEOV7p7KJJfufEc8GtGqA/ms.jpg,Philadelphia,PA,http://www.yelp.com/biz/urban-outfitters-philadelphia,10,3,-75.1945652,39.9542702
277,"3620 LocustUniversity CityPhiladelphia, PA 19104",Joe's Cafe,http://s3-media1.ak.yelpcdn.com/assets/2/www/img/924a6444ca6c/gfx/blank_biz_medium.gif,Philadelphia,PA,http://www.yelp.com/biz/joes-cafe-philadelphia,2,3.5,-75.1961,39.951785
278,"3141 Chestnut StUniversity CityPhiladelphia, PA 19104",Drexel University,http://s3-media1.ak.yelpcdn.com/bphoto/jjn-AV4AJfabx8ELyP3aAg/ms.jpg,Philadelphia,PA,http://www.yelp.com/biz/drexel-university-philadelphia,11,3.5,-75.186927,39.953829
279,"University CityPhiladelphia, PA 19104",Penn Park,http://s3-media1.ak.yelpcdn.com/bphoto/KT1-KUXUW61OMXZXDkVY9w/ms.jpg,Philadelphia,PA,http://www.yelp.com/biz/penn-park-philadelphia,3,4.5,-75.18627,39.950642
280,"8899 University Center LnSte 150University CitySan Diego, CA 92122",Pacific Dermatology & Cosmetic Laser Center,http://s3-media3.ak.yelpcdn.com/bphoto/o_mTNFHK2fDqna-RQEXLpw/ms.jpg,San Diego,CA,http://www.yelp.com/biz/pacific-dermatology-and-cosmetic-laser-center-san-diego,12,4.5,-117.227591,32.869844
281,"30th Street Station30th and Market StreetUniversity CityPhiladelphia, PA 19104",CrepeMaker,http://s3-media2.ak.yelpcdn.com/bphoto/FJu1gL1px9TZsc4X_k3NJA/ms.jpg,Philadelphia,PA,http://www.yelp.com/biz/crepemaker-philadelphia,13,3,-75.183249,39.954844
282,"200 Block 33rd StUniversity CityPhiladelphia, PA 19104",El Rosa Cucina Mexicana,http://s3-media1.ak.yelpcdn.com/assets/2/www/img/924a6444ca6c/gfx/blank_biz_medium.gif,Philadelphia,PA,http://www.yelp.com/biz/el-rosa-cucina-mexicana-philadelphia,2,5,-75.1901284,39.9522112
283,"4017 Chestnut StUniversity CityPhiladelphia, PA 19104",Christ Community Church of Philadelphia,http://s3-media3.ak.yelpcdn.com/bphoto/hUI91zMCfJlMfL5l3pd13A/ms.jpg,Philadelphia,PA,http://www.yelp.com/biz/christ-community-church-of-philadelphia-philadelphia,2,4.5,-75.2032147,39.9559062
284,"31 S 42nd StUniversity CityPhiladelphia, PA 19104",West Philadelphia Locksmith Co,http://s3-media2.ak.yelpcdn.com/bphoto/io0YDO1KSWIaIvwt6QlSZg/ms.jpg,Philadelphia,PA,http://www.yelp.com/biz/west-philadelphia-locksmith-co-philadelphia,13,4.5,-75.2061706,39.9565953
285,"Houston Hall3417 Spruce StUniversity CityPhiladelphia, PA 19104",Insomnia Cookies,http://s3-media2.ak.yelpcdn.com/bphoto/UMWhdWqu5oZqgy67CB2mpg/ms.jpg,Philadelphia,PA,http://www.yelp.com/biz/insomnia-cookies-philadelphia,34,3.5,-75.1938841,39.951048
286,"8899 University Center LaneSuite 185University CitySan Diego, CA 92122",Carl H Smith DDS,http://s3-media1.ak.yelpcdn.com/assets/2/www/img/924a6444ca6c/gfx/blank_biz_medium.gif,San Diego,CA,http://www.yelp.com/biz/carl-h-smith-dds-san-diego,4,4,-117.2280774,32.8700905
287,"3890 Nobel DrUniversity CitySan Diego, CA 92122",Mariya's European Skin Care,http://s3-media3.ak.yelpcdn.com/bphoto/4mbMeGP_3LMrfikWa_adjQ/ms.jpg,San Diego,CA,http://www.yelp.com/biz/mariyas-european-skin-care-san-diego,10,4,-117.223007,32.868799
288,"216 S 40th StUniversity CityPhiladelphia, PA 19104",Won Oriental Restaurant,http://s3-media1.ak.yelpcdn.com/bphoto/GXD67rOH2EMU_DeO2_vdsA/ms.jpg,Philadelphia,PA,http://www.yelp.com/biz/won-oriental-restaurant-philadelphia,15,2.5,-75.2028148,39.9535384
289,"4012 Walnut StUniversity CityPhiladelphia, PA 19104",12 Lounge,http://s3-media3.ak.yelpcdn.com/bphoto/HlNYf7k5IhI3PldjEGKSNg/ms.jpg,Philadelphia,PA,http://www.yelp.com/biz/12-lounge-philadelphia,6,3,-75.2024769,39.9540328
290,"3417 Lebon DrUniversity CitySan Diego, CA 92122",La Jolla International Gardens,http://s3-media4.ak.yelpcdn.com/bphoto/9aDbqjn4KuE3yz-0BUN3Ww/ms.jpg,San Diego,CA,http://www.yelp.com/biz/la-jolla-international-gardens-san-diego,10,2.5,-117.2246122,32.8670218
291,"Cira Center2929 Arch St, Ground FlUniversity CityPhiladelphia, PA 19104",JG Domestic,http://s3-media1.ak.yelpcdn.com/bphoto/y28YMuirKDmabUrPxaQAWw/ms.jpg,Philadelphia,PA,http://www.yelp.com/biz/jg-domestic-philadelphia,105,3.5,-75.18208265,39.9570731
292,"3180 Chestnut StUniversity CityPhiladelphia, PA 19104",Mikey's American Grill & Sports Bar,http://s3-media1.ak.yelpcdn.com/bphoto/JAwbSi08nIBbZOhXLIVy7A/ms.jpg,Philadelphia,PA,http://www.yelp.com/biz/mikeys-american-grill-and-sports-bar-philadelphia-2,38,2,-75.1871846,39.9536332
293,"138 S 34th StShops at PennUniversity CityPhiladelphia, PA 19104",Ritz Camera,http://s3-media1.ak.yelpcdn.com/assets/2/www/img/924a6444ca6c/gfx/blank_biz_medium.gif,Philadelphia,PA,http://www.yelp.com/biz/ritz-camera-philadelphia,4,2.5,-75.1982433,39.9531832
294,"University CityPhiladelphia, PA",Foo Truck,http://s3-media4.ak.yelpcdn.com/bphoto/lPvFDmFla3Fr-Mccq5OLhw/ms.jpg,Philadelphia,PA,http://www.yelp.com/biz/foo-truck-philadelphia,22,4,-75.18316,39.95526
295,"2955 Market StreetLobby AUniversity CityPhiladelphia, PA 19104",United States Postal Service,http://s3-media1.ak.yelpcdn.com/assets/2/www/img/924a6444ca6c/gfx/blank_biz_medium.gif,Philadelphia,PA,http://www.yelp.com/biz/united-states-postal-service-philadelphia-3,3,1.5,-75.185108,39.954622
296,"3130 Walnut StUniversity CityPhiladelphia, PA 19104",Class of 1923 Ice Rink,http://s3-media1.ak.yelpcdn.com/bphoto/aWvsGQR9B97XIJgarjnOIQ/ms.jpg,Philadelphia,PA,http://www.yelp.com/biz/class-of-1923-ice-rink-philadelphia,10,3,-75.1874845,39.9508212
297,"3418 Samson StUniversity CityPhiladelphia, PA 19104",University City Housing,http://s3-media4.ak.yelpcdn.com/bphoto/MbWkWPvh7i7tn61M6hzJIA/ms.jpg,Philadelphia,PA,http://www.yelp.com/biz/university-city-housing-philadelphia-6,6,3,-75.192893,39.953536
298,"3131 Walnut StUniversity CityPhiladelphia, PA 19104",Intermezzo Cafe,http://s3-media4.ak.yelpcdn.com/bphoto/w49SkDLHKmSckLi6xGSP2A/ms.jpg,Philadelphia,PA,http://www.yelp.com/biz/intermezzo-cafe-philadelphia,18,3.5,-75.1873948,39.9523072
299,"3604 Chestnut StUniversity CityPhiladelphia, PA 19104",Wawa Food Markets,http://s3-media4.ak.yelpcdn.com/bphoto/Ck_8uvkU2_RkmKwHyAfIzw/ms.jpg,Philadelphia,PA,http://www.yelp.com/biz/wawa-food-markets-philadelphia-10,24,3.5,-75.1947929,39.9546927
300,"Walnut Hill College4207 Walnut StUniversity CityPhiladelphia, PA 19104",The Restaurant School,http://s3-media1.ak.yelpcdn.com/bphoto/Gr0eiOr7BFtOW_Lf7j5ChQ/ms.jpg,Philadelphia,PA,http://www.yelp.com/biz/the-restaurant-school-philadelphia,25,4,-75.207472,39.955125
301,"3441 Chestnut StUniversity CityPhiladelphia, PA 19104",T-Mobile,http://s3-media1.ak.yelpcdn.com/assets/2/www/img/924a6444ca6c/gfx/blank_biz_medium.gif,Philadelphia,PA,http://www.yelp.com/biz/t-mobile-philadelphia-17,3,1,-75.192289,39.954545
302,"3517 Lancaster AvePowelton VillagePhiladelphia, PA 19104",Mad Greek Restaurant and Pizza,http://s3-media2.ak.yelpcdn.com/bphoto/vWFyIh6CSsyETLK6jkcp3g/ms.jpg,Philadelphia,PA,http://www.yelp.com/biz/mad-greek-restaurant-and-pizza-philadelphia,19,4,-75.1929998,39.9583751
303,"3907 Walnut StUniversity CityPhiladelphia, PA 19104",Campus Copy Center,http://s3-media2.ak.yelpcdn.com/bphoto/2Dgva0h0d-HjwtNjjEDgxA/ms.jpg,Philadelphia,PA,http://www.yelp.com/biz/campus-copy-center-philadelphia-2,10,3,-75.2006314,39.9539782
304,"4026 Market StUniversity CityPhiladelphia, PA 19104",University Pizza & Wings,http://s3-media2.ak.yelpcdn.com/bphoto/VB86ghAx2oIRE6Nnm2nG9g/ms.jpg,Philadelphia,PA,http://www.yelp.com/biz/university-pizza-and-wings-philadelphia,6,2,-75.2030026,39.9571386
305,"3333 Market StPowelton VillagePhiladelphia, PA 19104",Landmark Americana,http://s3-media2.ak.yelpcdn.com/bphoto/kgK-VykSs4AU4nNIK0HdJw/ms.jpg,Philadelphia,PA,http://www.yelp.com/biz/landmark-americana-philadelphia,101,3,-75.1907927,39.9557888
306,"3925 Walnut StUniversity CityPhiladelphia, PA 19104",Jimmy John's Gourmet Sandwiches,http://s3-media2.ak.yelpcdn.com/bphoto/KJIyFLCfRANMYHsj8ntIGA/ms.jpg,Philadelphia,PA,http://www.yelp.com/biz/jimmy-johns-gourmet-sandwiches-philadelphia-2,30,4,-75.201396,39.954261
307,"38th and Locust WalkUniversity CityPhiladelphia, PA 19104",Steak Queen,http://s3-media4.ak.yelpcdn.com/bphoto/N0QImHcJ0kGfPidijQMPDg/ms.jpg,Philadelphia,PA,http://www.yelp.com/biz/steak-queen-philadelphia,10,4,-75.19889,39.952481
308,"4001 Walnut StUniversity CityPhiladelphia, PA 19104",The Fresh Grocer,http://s3-media2.ak.yelpcdn.com/bphoto/rpNKUPbtikeRuu_abeEL_g/ms.jpg,Philadelphia,PA,http://www.yelp.com/biz/the-fresh-grocer-philadelphia,103,2,-75.202796,39.9543003
309,"3724 Spruce StUniversity CityPhiladelphia, PA 19104",Bonded BoutiqueCleaners,http://s3-media4.ak.yelpcdn.com/bphoto/WCWUb_wuSPcpvPzby16hEg/ms.jpg,Philadelphia,PA,http://www.yelp.com/biz/bonded-boutiquecleaners-philadelphia-2,3,3.5,-75.197734,39.950948
310,"Market St between 34th and 35thPowelton VillagePhiladelphia, PA 19104",Big Blue Lunch Truck,http://s3-media4.ak.yelpcdn.com/bphoto/l5QlS7SAY5M03art2YznBA/ms.jpg,Philadelphia,PA,http://www.yelp.com/biz/big-blue-lunch-truck-philadelphia,2,3,-75.1953934,39.9583587
311,"3430 Sansom StUniversity CityPhiladelphia, PA 19104",Bucks County Coffee Co,http://s3-media3.ak.yelpcdn.com/bphoto/NbDdtJwbNJo96Vs9l80zdQ/ms.jpg,Philadelphia,PA,http://www.yelp.com/biz/bucks-county-coffee-co-philadelphia-2,9,3.5,-75.1932025,39.9536219
312,"4040 Locust StUniversity CityPhiladelphia, PA 19104",Video Library,http://s3-media1.ak.yelpcdn.com/assets/2/www/img/924a6444ca6c/gfx/blank_biz_medium.gif,Philadelphia,PA,http://www.yelp.com/biz/video-library-philadelphia-2,10,3.5,-75.204796,39.952878
313,"501 S 42nd StUniversity CityPhiladelphia, PA 19104",Desi Chaat House,http://s3-media1.ak.yelpcdn.com/bphoto/Nqfk28GeSfuqK2INPZtmsQ/ms.jpg,Philadelphia,PA,http://www.yelp.com/biz/desi-chaat-house-philadelphia,97,4,-75.206809,39.949666
314,"40th and LocustUniversity CityPhiladelphia, PA 19104",Produce Cart,http://s3-media1.ak.yelpcdn.com/assets/2/www/img/924a6444ca6c/gfx/blank_biz_medium.gif,Philadelphia,PA,http://www.yelp.com/biz/produce-cart-philadelphia,3,3,-75.2028385,39.9529565
315,"8929 University Center LaneUniversity CitySan Diego, CA 92122",Guess Garrett M DDS,http://s3-media1.ak.yelpcdn.com/assets/2/www/img/924a6444ca6c/gfx/blank_biz_medium.gif,San Diego,CA,http://www.yelp.com/biz/guess-garrett-m-dds-san-diego,2,5,-117.226524,32.869842
316,"3716 Spruce StUniversity CityPhiladelphia, PA 19104",Taglio,http://s3-media4.ak.yelpcdn.com/bphoto/-p4z05dFZrWQhfR57qUZjg/ms.jpg,Philadelphia,PA,http://www.yelp.com/biz/taglio-philadelphia,13,4,-75.198256,39.951131
317,"33rd St and Arch StPowelton VillagePhiladelphia, PA 19104",Honest Tom's,http://s3-media2.ak.yelpcdn.com/bphoto/8ybX5b3yGYxP4C1FhPkaHA/ms.jpg,Philadelphia,PA,http://www.yelp.com/biz/honest-toms-philadelphia,67,4,-75.1890664,39.9576073
318,"4000 Locust StUniversity CityPhiladelphia, PA 19104",Saxbys Coffee,http://s3-media1.ak.yelpcdn.com/bphoto/cXp-YLiUNEcEb3dGRCw_Lw/ms.jpg,Philadelphia,PA,http://www.yelp.com/biz/saxbys-coffee-philadelphia-4,34,2,-75.2028672,39.9529452
319,"3716 Spruce StUniversity CityPhiladelphia, PA 19104",T Bowl,http://s3-media2.ak.yelpcdn.com/bphoto/XjWopAPaV_2c69sdcPLTYg/ms.jpg,Philadelphia,PA,http://www.yelp.com/biz/t-bowl-philadelphia,21,2,-75.198256,39.951131
320,"107 N 33rd StPowelton VillagePhiladelphia, PA 19104",Drexel Pizza Restaurant,http://s3-media3.ak.yelpcdn.com/bphoto/gF9sC6Q2brfdrdEmprnl6Q/ms.jpg,Philadelphia,PA,http://www.yelp.com/biz/drexel-pizza-restaurant-philadelphia,20,3,-75.1889989,39.9579526
321,"134 S 34th StUniversity CityPhiladelphia, PA 19104",Citizens Bank,http://s3-media1.ak.yelpcdn.com/bphoto/Dg1nCaEyVPtlkjpIoyh8yg/ms.jpg,Philadelphia,PA,http://www.yelp.com/biz/citizens-bank-philadelphia-9,4,2,-75.1921217,39.9534225
322,"3606 Chestnut StUniversity CityPhiladelphia, PA 19104",Kiwi Frozen Yogurt,http://s3-media1.ak.yelpcdn.com/bphoto/Ahe51utq8DlDP_LB14kbrQ/ms.jpg,Philadelphia,PA,http://www.yelp.com/biz/kiwi-frozen-yogurt-philadelphia,61,3.5,-75.1946073,39.9546713
323,"3000 Chestnut StUniversity CityPhiladelphia, PA 19104",US Post Office,http://s3-media4.ak.yelpcdn.com/bphoto/K3hARQbYEQo-L_YrFFCoQg/ms.jpg,Philadelphia,PA,http://www.yelp.com/biz/us-post-office-philadelphia-11,15,2.5,-75.183971,39.953027
324,"8899 University Center LnSte 245University CitySan Diego, CA 92122","David S Eshom, DDS",http://s3-media4.ak.yelpcdn.com/bphoto/JaJfjMPTnA_7a4E7cnAWqA/ms.jpg,San Diego,CA,http://www.yelp.com/biz/david-s-eshom-dds-san-diego,17,4.5,-117.228069,32.87009
325,"3744 Spruce StUniversity CityPhiladelphia, PA 19104",Wawa Food Markets,http://s3-media1.ak.yelpcdn.com/bphoto/sYAg71WrK4q8N6wMwR_FFw/ms.jpg,Philadelphia,PA,http://www.yelp.com/biz/wawa-food-markets-philadelphia-24,22,4,-75.1988621,39.9511241
326,"3950 Mahaila AveUniversity CitySan Diego, CA 92122",Jerry Lio Photography,http://s3-media3.ak.yelpcdn.com/bphoto/RJohkfy4gY4i-AVn1R9l-Q/ms.jpg,San Diego,CA,http://www.yelp.com/biz/jerry-lio-photography-san-diego,3,5,-117.221637,32.869603
327,"Powelton VillagePhiladelphia, PA 19104",Guapos Tacos,http://s3-media2.ak.yelpcdn.com/bphoto/4tSFcWs7Je_duaVwCnBcTA/ms.jpg,Philadelphia,PA,http://www.yelp.com/biz/guapos-tacos-philadelphia,50,3,-75.1953934,39.9583587
328,"3600 Lancaster AvePowelton VillagePhiladelphia, PA 19104",Zocalo,http://s3-media2.ak.yelpcdn.com/bphoto/M-uo9HTEJEx7cS0eCsQyUg/ms.jpg,Philadelphia,PA,http://www.yelp.com/biz/zocalo-philadelphia,53,3,-75.1938838,39.958557
329,"3421 Chestnut StUniversity CityPhiladelphia, PA 19104",Starbucks,http://s3-media1.ak.yelpcdn.com/bphoto/ZysUrdlTNSK36jjGE2Stjw/ms.jpg,Philadelphia,PA,http://www.yelp.com/biz/starbucks-philadelphia-3,26,4.5,-75.1923623,39.9545899
330,"Drexel University Campus -  Korman Center Lower Level33rd St & Market StPowelton VillagePhiladelphia, PA 19104",Computer Fixer,http://s3-media1.ak.yelpcdn.com/assets/2/www/img/924a6444ca6c/gfx/blank_biz_medium.gif,Philadelphia,PA,http://www.yelp.com/biz/computer-fixer-philadelphia,3,2.5,-75.18938899,39.95551053
331,"Food TruckS. 33rd St. & South St.University CityPhiladelphia, PA 19104",King's Wok Chinese Food,http://s3-media1.ak.yelpcdn.com/bphoto/orLEZ49TAqnslUDq3ucptg/ms.jpg,Philadelphia,PA,http://www.yelp.com/biz/kings-wok-chinese-food-philadelphia,7,3.5,-75.19176,39.950316
332,"3777 La Jolla Village DrUniversity CitySan Diego, CA 92122",Michael's Lounge,http://s3-media2.ak.yelpcdn.com/bphoto/Cvud-o7AOWlAnSIkpy2ybA/ms.jpg,San Diego,CA,http://www.yelp.com/biz/michaels-lounge-san-diego,25,3.5,-117.225644,32.870925
333,"101 S 40th StUniversity CityPhiladelphia, PA 19104",All Seasons Cleaners,http://s3-media2.ak.yelpcdn.com/bphoto/ulFEQgde7H8YGdAkBzFGGA/ms.jpg,Philadelphia,PA,http://www.yelp.com/biz/all-seasons-cleaners-philadelphia,11,3.5,-75.2022101,39.9555162
334,"3925 Walnut StUniversity CityPhiladelphia, PA 19104",Radian Apartments,http://s3-media1.ak.yelpcdn.com/assets/2/www/img/924a6444ca6c/gfx/blank_biz_medium.gif,Philadelphia,PA,http://www.yelp.com/biz/radian-apartments-philadelphia,4,1,-75.200789,39.954017
335,"4145 Chestnut StUniversity CityPhiladelphia, PA 19104",College Pizza/College Cafe,http://s3-media3.ak.yelpcdn.com/bphoto/h06klBzftVMrniS67bdmsQ/ms.jpg,Philadelphia,PA,http://www.yelp.com/biz/college-pizza-college-cafe-philadelphia,6,3,-75.2061045,39.9561272
336,"240 S 31st StUniversity CityPhiladelphia, PA 19104",The Levy Tennis Pavilion,http://s3-media1.ak.yelpcdn.com/assets/2/www/img/924a6444ca6c/gfx/blank_biz_medium.gif,Philadelphia,PA,http://www.yelp.com/biz/the-levy-tennis-pavilion-philadelphia,2,5,-75.1875222,39.9509213
337,"Creese Student Center3141 Chestnut StUniversity CityPhiladelphia, PA 19104",Hair House,http://s3-media1.ak.yelpcdn.com/assets/2/www/img/924a6444ca6c/gfx/blank_biz_medium.gif,Philadelphia,PA,http://www.yelp.com/biz/hair-house-philadelphia,3,3,-75.1883722,39.9534403
338,"3401 Spruce StUniversity CityPhiladelphia, PA 19104",Irvine Auditorium,http://s3-media1.ak.yelpcdn.com/assets/2/www/img/924a6444ca6c/gfx/blank_biz_medium.gif,Philadelphia,PA,http://www.yelp.com/biz/irvine-auditorium-philadelphia,3,4,-75.1928025,39.9506524
339,"3610 Sansom StUniversity CityPhiladelphia, PA 19104",University of Pennsylvania Computer Connection,http://s3-media3.ak.yelpcdn.com/bphoto/PRMM2QnEqOEgHSKur81H3w/ms.jpg,Philadelphia,PA,http://www.yelp.com/biz/university-of-pennsylvania-computer-connection-philadelphia,9,3.5,-75.1952424,39.95392
340,"118 S 36th StUniversity CityPhiladelphia, PA 19104",Institute of Contemporary Art,http://s3-media2.ak.yelpcdn.com/bphoto/3UfmUB_BRqwAM6G4DweSOw/ms.jpg,Philadelphia,PA,http://www.yelp.com/biz/institute-of-contemporary-art-philadelphia,16,4,-75.1947567,39.9539923
341,"3924 Chestnut StUniversity CityPhiladelphia, PA 19104",American Legion Penn Center Post 204,http://s3-media1.ak.yelpcdn.com/assets/2/www/img/924a6444ca6c/gfx/blank_biz_medium.gif,Philadelphia,PA,http://www.yelp.com/biz/american-legion-penn-center-post-204-philadelphia,3,3,-75.201251,39.955088
342,"Powelton VillagePhiladelphia, PA 19104",The Dog Dude,http://s3-media3.ak.yelpcdn.com/bphoto/UTg-egA3l9UCanDEvkTyOw/ms.jpg,Philadelphia,PA,http://www.yelp.com/biz/the-dog-dude-philadelphia,3,2.5,-75.1953934,39.9583587
343,"2955 Market StUniversity CityPhiladelphia, PA 19104",Dunkin Donuts,http://s3-media1.ak.yelpcdn.com/bphoto/AENdmk_mocfE6dWuSAff4Q/ms.jpg,Philadelphia,PA,http://www.yelp.com/biz/dunkin-donuts-philadelphia-8,17,4,-75.185108,39.954622
344,"Powelton VillagePhiladelphia, PA 19104",CROW: Computer Repair On Wheels,http://s3-media1.ak.yelpcdn.com/bphoto/myMG-T1HmtsaPPcoVC3CIQ/ms.jpg,Philadelphia,PA,http://www.yelp.com/biz/crow-computer-repair-on-wheels-philadelphia,4,5,-75.1953934,39.9583587
345,"3636 Nobel DrSte 170University CitySan Diego, CA 92122",San Diego Real Estate & Investments,http://s3-media3.ak.yelpcdn.com/bphoto/Ce_noNuxpOvWulfSKeeUdw/ms.jpg,San Diego,CA,http://www.yelp.com/biz/san-diego-real-estate-and-investments-san-diego-2,4,5,-117.227831,32.868957
346,"4026 Market StUniversity CityPhiladelphia, PA 19104",Wise Guy's Pizza & Steaks,http://s3-media2.ak.yelpcdn.com/bphoto/Be24PsLuPOl2HRz2clTnYg/ms.jpg,Philadelphia,PA,http://www.yelp.com/biz/wise-guys-pizza-and-steaks-philadelphia,8,4,-75.2030033,39.957127
347,"2955 Market StUniversity CityPhiladelphia, PA 19104",Cosi,http://s3-media2.ak.yelpcdn.com/bphoto/fYxtcDbY_Udtb0Rqye3dkw/ms.jpg,Philadelphia,PA,http://www.yelp.com/biz/cosi-philadelphia-10,19,2,-75.1825258,39.9547514
348,"4138 Market StUniversity CityPhiladelphia, PA 19104",Midas Auto Service Experts,http://s3-media1.ak.yelpcdn.com/assets/2/www/img/924a6444ca6c/gfx/blank_biz_medium.gif,Philadelphia,PA,http://www.yelp.com/biz/midas-auto-service-experts-philadelphia-4,3,1,-75.205607,39.957325
349,"40th & Walnut StUniversity CityPhiladelphia, PA 19104",Harvest Seasonal Grill & Wine Bar,http://s3-media2.ak.yelpcdn.com/bphoto/hVABYqrptChHU6vRug7u-Q/ms.jpg,Philadelphia,PA,http://www.yelp.com/biz/harvest-seasonal-grill-and-wine-bar-philadelphia,7,4,-75.2027187,39.95414226
350,"4021 Market StUniversity CityPhiladelphia, PA 19104",Philadelphia Trading Post,http://s3-media1.ak.yelpcdn.com/assets/2/www/img/924a6444ca6c/gfx/blank_biz_medium.gif,Philadelphia,PA,http://www.yelp.com/biz/philadelphia-trading-post-philadelphia,3,2,-75.2030586,39.9573493
351,"3421 Walnut StUniversity CityPhiladelphia, PA 19104",Artisserie Chocolate Cafe,http://s3-media4.ak.yelpcdn.com/bphoto/x8MADR52s3fkToFHrsAHaQ/ms.jpg,Philadelphia,PA,http://www.yelp.com/biz/artisserie-chocolate-cafe-philadelphia-4,17,4,-75.1930981,39.9531439
352,"The Left Bank3131 Walnut StUniversity CityPhiladelphia, PA 19104",Tria Wine Room,http://s3-media1.ak.yelpcdn.com/bphoto/-bldiLXUCZU6Jz42DOi2Lw/ms.jpg,Philadelphia,PA,http://www.yelp.com/biz/tria-wine-room-philadelphia,67,4.5,-75.1873948,39.9523072
353,"33rd & Arch StPowelton VillagePhiladelphia, PA 19104",Rival Bros,http://s3-media1.ak.yelpcdn.com/bphoto/2lTI5reERhfS3OHJfgIWqg/ms.jpg,Philadelphia,PA,http://www.yelp.com/biz/rival-bros-philadelphia,22,5,-75.1890664,39.9576073
354,"37th and Spruce StUniversity CityPhiladelphia, PA 19104",Fresh Fruit Salad Cart,http://s3-media1.ak.yelpcdn.com/bphoto/HaegyKEEgfbT2hYmLiq5zQ/ms.jpg,Philadelphia,PA,http://www.yelp.com/biz/fresh-fruit-salad-cart-philadelphia,12,4.5,-75.197243,39.951021
355,"3417 Spruce StUniversity CityPhiladelphia, PA 19104",Pari Cafe Creperie,http://s3-media4.ak.yelpcdn.com/bphoto/bxC337L-OmsQoVkbbSZiuQ/ms.jpg,Philadelphia,PA,http://www.yelp.com/biz/pari-cafe-creperie-philadelphia-2,36,4,-75.1938841,39.951048
356,"20 S 36th StUniversity CityPhiladelphia, PA 19104",Axis Pizza,http://s3-media1.ak.yelpcdn.com/bphoto/gd4R--Q2eouB3yycNL3DqQ/ms.jpg,Philadelphia,PA,http://www.yelp.com/biz/axis-pizza-philadelphia,12,3,-75.194678,39.955264
357,"3819 Chestnut St Ste 120University CityPhiladelphia, PA 19104",Children's Hospital of Philadelphia,http://s3-media3.ak.yelpcdn.com/bphoto/mC2D6iaiwUtqNZFM5p-xzg/ms.jpg,Philadelphia,PA,http://www.yelp.com/biz/childrens-hospital-of-philadelphia-philadelphia,6,4.5,-75.198694,39.955339
358,"200 S 40th StUniversity CityPhiladelphia, PA 19195",Marathon,http://s3-media4.ak.yelpcdn.com/bphoto/67xXFLE2I05_zb4VtVo-_Q/ms.jpg,Philadelphia,PA,http://www.yelp.com/biz/marathon-philadelphia,59,2.5,-75.203267,39.953477
359,"3603 Walnut StUniversity CityPhiladelphia, PA 19103",Blue Mercury 2,http://s3-media4.ak.yelpcdn.com/bphoto/Iv1WKZotrvZPbiGz2MfKYA/ms.jpg,Philadelphia,PA,http://www.yelp.com/biz/blue-mercury-2-philadelphia,3,4,-75.1955049,39.9533341
360,"3935 Walnut StUniversity CityPhiladelphia, PA 19104",McDonald's,http://s3-media3.ak.yelpcdn.com/bphoto/sFJIQHHlVqz8LcH2q32O1A/ms.jpg,Philadelphia,PA,http://www.yelp.com/biz/mcdonalds-philadelphia-6,19,2,-75.2023066,39.9542401
361,"7545 Charmant DrLa JollaSan Diego, CA 92122",Individualized Fitness,http://s3-media3.ak.yelpcdn.com/bphoto/lsHGYDHvv0RLsURfIXsDBw/ms.jpg,San Diego,CA,http://www.yelp.com/biz/individualized-fitness-san-diego,7,5,-117.227511,32.864917
362,"3636 Nobel DriveUniversity CitySan Diego, CA 92122",The Lasik Vision Institute,http://s3-media1.ak.yelpcdn.com/assets/2/www/img/924a6444ca6c/gfx/blank_biz_medium.gif,San Diego,CA,http://www.yelp.com/biz/the-lasik-vision-institute-san-diego,3,4.5,-117.227831,32.868957
363,"3610 Lancaster AvePowelton VillagePhiladelphia, PA 19104",Franklin Cleaners,http://s3-media1.ak.yelpcdn.com/assets/2/www/img/924a6444ca6c/gfx/blank_biz_medium.gif,Philadelphia,PA,http://www.yelp.com/biz/franklin-cleaners-philadelphia-2,5,3,-75.1940044,39.9587936
364,"4203 Walnut StUniversity CityPhiladelphia, PA 19104",International Foods and Spices,http://s3-media3.ak.yelpcdn.com/bphoto/Tg3JNDJc-9Y_9iUoaKucdw/ms.jpg,Philadelphia,PA,http://www.yelp.com/biz/international-foods-and-spices-philadelphia,11,4,-75.2069221,39.9549073
365,"3746 Sansom StUniversity CityPhiladelphia, PA 19104",Indian Food Truck,http://s3-media1.ak.yelpcdn.com/bphoto/rWkDo-XAR2dNb1hoVQryRw/ms.jpg,Philadelphia,PA,http://www.yelp.com/biz/indian-food-truck-philadelphia,10,2,-75.1977153,39.9542887
366,"2951 Market StUniversity CityPhiladelphia, PA 19104",Taco Bell / Pizza Hut,http://s3-media4.ak.yelpcdn.com/bphoto/TJQh8cO4yS1taECi9NC5_Q/ms.jpg,Philadelphia,PA,http://www.yelp.com/biz/taco-bell-pizza-hut-philadelphia,4,3.5,-75.1819469,39.95573
367,"60 S 38th StUniversity CityPhiladelphia, PA 19104",Sitar India Restaurant,http://s3-media3.ak.yelpcdn.com/bphoto/di-lqtcWh7oJlQpanjrNlw/ms.jpg,Philadelphia,PA,http://www.yelp.com/biz/sitar-india-restaurant-philadelphia,105,4,-75.1985111,39.9555568
368,"3535 Lebon DriveUniversity CitySan Diego, CA 92122",La Jolla Palms,http://s3-media1.ak.yelpcdn.com/assets/2/www/img/924a6444ca6c/gfx/blank_biz_medium.gif,San Diego,CA,http://www.yelp.com/biz/la-jolla-palms-san-diego,9,2,-117.2239772,32.8699861
369,"8540 Costa Verde BlvdUniversity CitySan Diego, CA 92122",Costa Verde,http://s3-media4.ak.yelpcdn.com/bphoto/GAh_Xgt9M5jwBI9RoYXjJg/ms.jpg,San Diego,CA,http://www.yelp.com/biz/costa-verde-san-diego,44,2.5,-117.21822,32.868621
370,"3711 Market StGround FlPowelton VillagePhiladelphia, PA 19104",NextFab Studio,http://s3-media4.ak.yelpcdn.com/bphoto/IWPbeApUqlXGX5ocsRF-0g/ms.jpg,Philadelphia,PA,http://www.yelp.com/biz/nextfab-studio-philadelphia,2,5,-75.196958,39.956641
371,"3401 Chestnut StUniversity CityPhiladelphia, PA 19104",Eastern Mountain Sports,http://s3-media4.ak.yelpcdn.com/bphoto/kY2jlkzi8QyxGJ8CDS8L_A/ms.jpg,Philadelphia,PA,http://www.yelp.com/biz/eastern-mountain-sports-philadelphia,20,3.5,-75.191932,39.954515
372,"3731 Walnut StUniversity CityPhiladelphia, PA 19104",Campus Copy Center,http://s3-media3.ak.yelpcdn.com/bphoto/BSbsQSbWbbwImMq5e9mFaQ/ms.jpg,Philadelphia,PA,http://www.yelp.com/biz/campus-copy-center-philadelphia,11,3.5,-75.1979531,39.9535597
373,"3417 Spruce StUniversity CityPhiladelphia, PA 19104",Insomnia Cookies Penn,http://s3-media3.ak.yelpcdn.com/bphoto/Rjkt74MHPkcO1s-13f4cKA/ms.jpg,Philadelphia,PA,http://www.yelp.com/biz/insomnia-cookies-penn-philadelphia,2,4,-75.192769,39.950604
374,"223 S StreetUniversity CityPhiladelphia, PA 19176",Next BYOB,http://s3-media1.ak.yelpcdn.com/assets/2/www/img/924a6444ca6c/gfx/blank_biz_medium.gif,Philadelphia,PA,http://www.yelp.com/biz/next-byob-philadelphia,2,3.5,-75.18316,39.95526
375,"4100 Walnut StUniversity CityPhiladelphia, PA 19104",Urban & Bye Realtor,http://s3-media1.ak.yelpcdn.com/assets/2/www/img/924a6444ca6c/gfx/blank_biz_medium.gif,Philadelphia,PA,http://www.yelp.com/biz/urban-and-bye-realtor-philadelphia,3,1,-75.2051092,39.9544034
376,"33rd & Market StPowelton VillagePhiladelphia, PA 19104",Melange Tea Cart,http://s3-media2.ak.yelpcdn.com/bphoto/aBhXKfAJq78npTfka776Wg/ms.jpg,Philadelphia,PA,http://www.yelp.com/biz/melange-tea-cart-philadelphia,7,5,-75.1894858,39.9556053
377,"3400 Civic Center BlvdRetail 4University CityPhiladelphia, PA 19104",Jimmy John's Gourmet Sandwiches,http://s3-media3.ak.yelpcdn.com/bphoto/qLn62VUtytY-GwzFCjWooQ/ms.jpg,Philadelphia,PA,http://www.yelp.com/biz/jimmy-johns-gourmet-sandwiches-philadelphia-5,4,3.5,-75.1934743,39.9475112
378,"3655 Nobel DrUniversity CitySan Diego, CA 92122",Broadcast Company of the Americas,http://s3-media1.ak.yelpcdn.com/assets/2/www/img/924a6444ca6c/gfx/blank_biz_medium.gif,San Diego,CA,http://www.yelp.com/biz/broadcast-company-of-the-americas-san-diego,3,3,-117.227913,32.86769
379,"3916 Locust WalkUniversity CityPhiladelphia, PA 19104",Neighborhood Bike Works,http://s3-media2.ak.yelpcdn.com/bphoto/eN1b_X2kijgaUZUFJxEuWg/ms.jpg,Philadelphia,PA,http://www.yelp.com/biz/neighborhood-bike-works-philadelphia,14,5,-75.2017121,39.9523762
380,"4140 Woodland AveUniversity CityPhiladelphia, PA 19104",Starbucks Coffee,http://s3-media2.ak.yelpcdn.com/bphoto/89IGnVek4wDm0J12lrO0EQ/ms.jpg,Philadelphia,PA,http://www.yelp.com/biz/starbucks-coffee-philadelphia-13,3,4.5,-75.2061794,39.9475802
381,"3405 Walnut StUniversity CityPhiladelphia, PA 19104",Auntie Anne's,http://s3-media3.ak.yelpcdn.com/bphoto/i7uYrO7P_O3boOEWsRuQ9g/ms.jpg,Philadelphia,PA,http://www.yelp.com/biz/auntie-annes-philadelphia,6,2.5,-75.1930565,39.9529512
382,"3655 Nobel DrSte 200University CitySan Diego, CA 92122","Law Office of J. Douglass Jennings, Jr.",http://s3-media1.ak.yelpcdn.com/bphoto/Qriax9SUWGfxYADtyvC2gA/ms.jpg,San Diego,CA,http://www.yelp.com/biz/law-office-of-j-douglass-jennings-jr-san-diego,3,2.5,-117.227913,32.86769
383,"Houston Hall3417 Spruce StPowelton VillagePhiladelphia, PA 19104",Scoop DeVille,http://s3-media1.ak.yelpcdn.com/bphoto/jhesy6JfXh0t3QNywArF9g/ms.jpg,Philadelphia,PA,http://www.yelp.com/biz/scoop-deville-philadelphia,4,4,-75.1953934,39.9583587
384,"Powelton VillagePhiladelphia, PA 19104",H & M Movers,http://s3-media1.ak.yelpcdn.com/assets/2/www/img/924a6444ca6c/gfx/blank_biz_medium.gif,Philadelphia,PA,http://www.yelp.com/biz/h-and-m-movers-philadelphia,3,5,-75.1953934,39.9583587
385,"3636 Nobel DrSte 100University CitySan Diego, CA 92122",Keller Williams Realty,http://s3-media2.ak.yelpcdn.com/bphoto/2UEUSJsV-T7cAA5zYlJdNA/ms.jpg,San Diego,CA,http://www.yelp.com/biz/keller-williams-realty-san-diego-9,4,5,-117.227831,32.868957
386,"3401 Walnut StSte 431AUniversity CityPhiladelphia, PA 19104",Student Federal Credit Union,http://s3-media1.ak.yelpcdn.com/assets/2/www/img/924a6444ca6c/gfx/blank_biz_medium.gif,Philadelphia,PA,http://www.yelp.com/biz/student-federal-credit-union-philadelphia,4,2.5,-75.193026,39.952998
387,"37th and WalnutUniversity CityPhiladelphia, PA 19104",Ali Baba Magic Food,http://s3-media1.ak.yelpcdn.com/assets/2/www/img/924a6444ca6c/gfx/blank_biz_medium.gif,Philadelphia,PA,http://www.yelp.com/biz/ali-baba-magic-food-philadelphia,8,4,-75.196762,39.953387
388,"8720 Costa Verde BlvdUniversity CitySan Diego, CA 92122",Costa Verde South,http://s3-media1.ak.yelpcdn.com/assets/2/www/img/924a6444ca6c/gfx/blank_biz_medium.gif,San Diego,CA,http://www.yelp.com/biz/costa-verde-south-san-diego,8,2,-117.2171634,32.8698788
389,"8980 University Center LnUniversity CitySan Diego, CA 92122",Melting Pot,http://s3-media1.ak.yelpcdn.com/bphoto/d-rxAU0i3d1LLFerlSn0_A/ms.jpg,San Diego,CA,http://www.yelp.com/biz/melting-pot-san-diego,320,4,-117.2244727,32.8704078
390,"9171 Roosevelt BlvdUniversity CityPhiladelphia, PA 19195",East King Buffet,http://s3-media4.ak.yelpcdn.com/bphoto/wPSMxIVq201p_ZqQx5mgTA/ms.jpg,Philadelphia,PA,http://www.yelp.com/biz/east-king-buffet-philadelphia,6,2.5,-75.18417,39.95421
391,"36th St and Spruce StUniversity CityPhiladelphia, PA 19104",Hemo's,http://s3-media3.ak.yelpcdn.com/bphoto/8stzKRv06ORyP75IUldDUw/ms.jpg,Philadelphia,PA,http://www.yelp.com/biz/hemos-philadelphia,36,4,-75.1953255,39.950789
392,"220 S 32nd StUniversity CityPhiladelphia, PA 19195",Palestra,http://s3-media2.ak.yelpcdn.com/bphoto/kIbgJ9qZIXzTucRuzj1txg/ms.jpg,Philadelphia,PA,http://www.yelp.com/biz/palestra-philadelphia,5,4,-75.1880827,39.9515531
393,"3900 Chestnut StUniversity CityPhiladelphia, PA 19104",Chestnut Hall Apartments,http://s3-media1.ak.yelpcdn.com/bphoto/Yf_oeMp_z1J-4Btk1yWZiw/ms.jpg,Philadelphia,PA,http://www.yelp.com/biz/chestnut-hall-apartments-philadelphia,2,1,-75.2001318,39.9549304
394,"7205 Charmant DrLa JollaSan Diego, CA 92122",Archstone La Jolla Colony,http://s3-media4.ak.yelpcdn.com/bphoto/d_EvfeljO5BWBaH2V2uA7Q/ms.jpg,San Diego,CA,http://www.yelp.com/biz/archstone-la-jolla-colony-san-diego,8,3,-117.2288911,32.8626728
395,"101 N 35th StPowelton VillagePhiladelphia, PA 19104",Uch,http://s3-media1.ak.yelpcdn.com/assets/2/www/img/924a6444ca6c/gfx/blank_biz_medium.gif,Philadelphia,PA,http://www.yelp.com/biz/uch-philadelphia,2,3,-75.192277,39.957869
396,"3161 Lancaster AvePowelton VillagePhiladelphia, PA 19104",Firestone Tire & Service Centers,http://s3-media1.ak.yelpcdn.com/bphoto/k0hXvSYEI0wH2njtn0NsNw/ms.jpg,Philadelphia,PA,http://www.yelp.com/biz/firestone-tire-and-service-centers-philadelphia-4,4,3.5,-75.1911646,39.957297
397,"3409 Walnut StUniversity CityPhiladelphia, PA 19104",Gourmet Ice Cream & Yogurt Shops At Penn,http://s3-media1.ak.yelpcdn.com/assets/2/www/img/924a6444ca6c/gfx/blank_biz_medium.gif,Philadelphia,PA,http://www.yelp.com/biz/gourmet-ice-cream-and-yogurt-shops-at-penn-philadelphia,2,3.5,-75.1930765,39.9529537
398,"4125 Chestnut StUniversity CityPhiladelphia, PA 19104",Chestnut Wash & Lube,http://s3-media1.ak.yelpcdn.com/bphoto/djFewEVGmNL6EgR88wxOng/ms.jpg,Philadelphia,PA,http://www.yelp.com/biz/chestnut-wash-and-lube-philadelphia,7,3.5,-75.205245,39.9562669
399,"3700 Market StUniversity CityPhiladelphia, PA 19104",Pennsylvania Dental Group Ltd,http://s3-media1.ak.yelpcdn.com/assets/2/www/img/924a6444ca6c/gfx/blank_biz_medium.gif,Philadelphia,PA,http://www.yelp.com/biz/pennsylvania-dental-group-ltd-philadelphia,6,2.5,-75.196631,39.956029
400,"University CityPhiladelphia, PA",Expecting Bliss,http://s3-media4.ak.yelpcdn.com/bphoto/WBBJcba8-e01HPWSKBG3Yw/ms.jpg,Philadelphia,PA,http://www.yelp.com/biz/expecting-bliss-philadelphia,2,5,-75.18316,39.95526
401,"7503 Charmant DrLa JollaSan Diego, CA 92122",Verano La Jolla,http://s3-media4.ak.yelpcdn.com/bphoto/t1B3TY_B8n-NNf62UCqztw/ms.jpg,San Diego,CA,http://www.yelp.com/biz/verano-la-jolla-san-diego,5,1.5,-117.2289777,32.8618737
402,"4205 Chestnut StUniversity CityPhiladelphia, PA 19104",Rice N Spice International Grocery Store,http://s3-media3.ak.yelpcdn.com/bphoto/2PvXl5ZZBOE8ngKWSyTcZg/ms.jpg,Philadelphia,PA,http://www.yelp.com/biz/rice-n-spice-international-grocery-store-philadelphia,24,4.5,-75.2067962,39.9563649
403,"4002 Spruce StUniversity CityPhiladelphia, PA 19104",Michael's Custom Cut,http://s3-media1.ak.yelpcdn.com/assets/2/www/img/924a6444ca6c/gfx/blank_biz_medium.gif,Philadelphia,PA,http://www.yelp.com/biz/michaels-custom-cut-philadelphia,5,4,-75.2033532,39.9516655
404,"3549 Chestnut StreetUniversity CityPhiladelphia, PA 19104",Sheraton Philadelphia University City Hotel,http://s3-media2.ak.yelpcdn.com/bphoto/xt6PcqFwtT86-Dgn5wq57Q/ms.jpg,Philadelphia,PA,http://www.yelp.com/biz/sheraton-philadelphia-university-city-hotel-philadelphia-2,31,3,-75.194077,39.954622
405,"3131 Walnut StUniversity CityPhiladelphia, PA 19104",Picnic,http://s3-media2.ak.yelpcdn.com/bphoto/RcKohUol2AxbLoYyL1lRzw/ms.jpg,Philadelphia,PA,http://www.yelp.com/biz/picnic-philadelphia,40,4.5,-75.1873948,39.9523072
406,"3437 Walnut StUniversity CityPhiladelphia, PA 19104",Dunkin' Donuts,http://s3-media1.ak.yelpcdn.com/bphoto/edyuoMEcE6jnyyzv8i85Gw/ms.jpg,Philadelphia,PA,http://www.yelp.com/biz/dunkin-donuts-philadelphia-40,14,3,-75.1935823,39.9531302
407,"36th and SpruceUniversity CityPhiladelphia, PA 19104",The Real Le Anh,http://s3-media1.ak.yelpcdn.com/assets/2/www/img/924a6444ca6c/gfx/blank_biz_medium.gif,Philadelphia,PA,http://www.yelp.com/biz/the-real-le-anh-philadelphia,4,2.5,-75.1953255,39.950789
408,"3901 Market StBox 1936Powelton VillagePhiladelphia, PA 19104","Shari Leavitt, DMD",http://s3-media1.ak.yelpcdn.com/assets/2/www/img/924a6444ca6c/gfx/blank_biz_medium.gif,Philadelphia,PA,http://www.yelp.com/biz/shari-leavitt-dmd-philadelphia,11,3,-75.1992897,39.9569685
409,"421 Curie BlvdGround Floor BRB 2/3University CityPhiladelphia, PA 19104",Au Bon Pain,http://s3-media1.ak.yelpcdn.com/bphoto/JAfzEgK-r6Y163KXATu8Zw/ms.jpg,Philadelphia,PA,http://www.yelp.com/biz/au-bon-pain-philadelphia-3,13,4,-75.196459,39.948331
410,"4003 Market StUniversity CityPhiladelphia, PA 19195",Natalie's,http://s3-media1.ak.yelpcdn.com/assets/2/www/img/924a6444ca6c/gfx/blank_biz_medium.gif,Philadelphia,PA,http://www.yelp.com/biz/natalies-philadelphia,6,3.5,-75.202111,39.957482
411,"30th and Market StUniversity CityPhiladelphia, PA 19195",30th Street Station,http://s3-media4.ak.yelpcdn.com/bphoto/SaMqCE6D19011kJZwUvS0g/ms.jpg,Philadelphia,PA,http://www.yelp.com/biz/30th-street-station-philadelphia-2,141,4,-75.1832766,39.9548473
412,"4049 Market St.University CityPhiladelphia, PA 19104",Pennsylvania Wine and Spirits,http://s3-media1.ak.yelpcdn.com/assets/2/www/img/924a6444ca6c/gfx/blank_biz_medium.gif,Philadelphia,PA,http://www.yelp.com/biz/pennsylvania-wine-and-spirits-philadelphia-3,4,2.5,-75.2039977,39.9574379
413,"3550 Market StPowelton VillagePhiladelphia, PA 19104",Off the Cuff,http://s3-media1.ak.yelpcdn.com/assets/2/www/img/924a6444ca6c/gfx/blank_biz_medium.gif,Philadelphia,PA,http://www.yelp.com/biz/off-the-cuff-philadelphia,5,2,-75.1939455,39.9561457
414,"4109 Walnut StUniversity CityPhiladelphia, PA 19104",Homewood Suites,http://s3-media1.ak.yelpcdn.com/assets/2/www/img/924a6444ca6c/gfx/blank_biz_medium.gif,Philadelphia,PA,http://www.yelp.com/biz/homewood-suites-philadelphia-2,2,4.5,-75.205574,39.954897
415,"30th St. Station30th St & MarketPowelton VillagePhiladelphia, PA 19104",Megabus,http://s3-media1.ak.yelpcdn.com/bphoto/XjcuNO6AdkHEfM0nPxgoVA/ms.jpg,Philadelphia,PA,http://www.yelp.com/biz/megabus-philadelphia,179,2.5,-75.1953934,39.9583587
416,"The Robert Schattner Center240 S 40th StUniversity CityPhiladelphia, PA 19104",University of Pennsylvania School of Dental Medicine,http://s3-media1.ak.yelpcdn.com/bphoto/Fm4FJdbNDGvIZJ3lrmNWmw/ms.jpg,Philadelphia,PA,http://www.yelp.com/biz/university-of-pennsylvania-school-of-dental-medicine-philadelphia,3,4,-75.2029913,39.9527617
417,"Penn Presbyterian Medical CenterMutch Building, 7th Floor, 51 N 39th StPowelton VillagePhiladelphia, PA 19104",Penn Family Care,http://s3-media1.ak.yelpcdn.com/assets/2/www/img/924a6444ca6c/gfx/blank_biz_medium.gif,Philadelphia,PA,http://www.yelp.com/biz/penn-family-care-philadelphia,12,2,-75.1953934,39.9583587
418,"3420 Walnut StUniversity CityPhiladelphia, PA 19104",Mark's Cafe,http://s3-media1.ak.yelpcdn.com/assets/2/www/img/924a6444ca6c/gfx/blank_biz_medium.gif,Philadelphia,PA,http://www.yelp.com/biz/marks-cafe-philadelphia,3,2.5,-75.193498,39.952739
419,"51 N 39th StPowelton VillagePhiladelphia, PA 19104",Penn Eye Care-Scheie Eye Institute,http://s3-media1.ak.yelpcdn.com/assets/2/www/img/924a6444ca6c/gfx/blank_biz_medium.gif,Philadelphia,PA,http://www.yelp.com/biz/penn-eye-care-scheie-eye-institute-philadelphia,4,2.5,-75.1995351,39.9572391
420,"4034 Walnut StUniversity CityPhiladelphia, PA 19104",Lee's Hoagie House,http://s3-media2.ak.yelpcdn.com/bphoto/bykCzb8zi3w2_V5rzAZdoA/ms.jpg,Philadelphia,PA,http://www.yelp.com/biz/lees-hoagie-house-philadelphia-2,47,3.5,-75.2041516,39.9542123
421,"4004 Chestnut StUniversity CityPhiladelphia, PA 19104",New Delhi Indian Restaurant,http://s3-media1.ak.yelpcdn.com/bphoto/Ok881W6CvU4EtdrRloz3fw/ms.jpg,Philadelphia,PA,http://www.yelp.com/biz/new-delhi-indian-restaurant-philadelphia,199,4,-75.2026047,39.9555719
422,"3300 Market StUniversity CityPhiladelphia, PA 19104",La Dominique,http://s3-media4.ak.yelpcdn.com/bphoto/haIPZZp7XVTVmYxpCL2y9Q/ms.jpg,Philadelphia,PA,http://www.yelp.com/biz/la-dominique-philadelphia,17,4.5,-75.1896905,39.9553587
423,"36th and Spruce StUniversity CityPhiladelphia, PA 19195",The Real Lee Ahn,http://s3-media1.ak.yelpcdn.com/assets/2/www/img/924a6444ca6c/gfx/blank_biz_medium.gif,Philadelphia,PA,http://www.yelp.com/biz/the-real-lee-ahn-philadelphia,11,2.5,-75.1953255,39.950789
424,"3929 Sansom StUniversity CityPhiladelphia, PA 19104",Fatboy and Slim's,http://s3-media2.ak.yelpcdn.com/bphoto/PvEw8trDU-G9IWFKQmCBXg/ms.jpg,Philadelphia,PA,http://www.yelp.com/biz/fatboy-and-slims-philadelphia,8,3.5,-75.2010456,39.9547647
425,"3131 Walnut StUniversity CityPhiladelphia, PA 19104",Trophy Bikes,http://s3-media3.ak.yelpcdn.com/bphoto/pLISQw7S5vwIW-jxLeIoWw/ms.jpg,Philadelphia,PA,http://www.yelp.com/biz/trophy-bikes-philadelphia,38,3.5,-75.1873948,39.9523072
426,"3724 Spruce StUniversity CityPhiladelphia, PA 19104",Bonded Cleaners,http://s3-media2.ak.yelpcdn.com/bphoto/lpH0hIXps6_PFQI9jOANdw/ms.jpg,Philadelphia,PA,http://www.yelp.com/biz/bonded-cleaners-philadelphia,6,3,-75.1984011,39.9510629
427,"3701 Chestnut StUniversity CityPhiladelphia, PA 19104",Aroma Cafe,http://s3-media4.ak.yelpcdn.com/bphoto/yMsAtYdQF2GZHxVwwUiJaQ/ms.jpg,Philadelphia,PA,http://www.yelp.com/biz/aroma-cafe-philadelphia,5,3,-75.196776,39.955066
428,"3801 Chestnut StUniversity CityPhiladelphia, PA 19104",Jolly's Dueling Pianos & American Beer Bar,http://s3-media3.ak.yelpcdn.com/bphoto/9QEe_CMJQA_PQstnXdN9rA/ms.jpg,Philadelphia,PA,http://www.yelp.com/biz/jollys-dueling-pianos-and-american-beer-bar-philadelphia,6,4,-75.198948,39.955642
429,"3419 Walnut StUniversity CityPhiladelphia, PA 19104",Modern Eye,http://s3-media2.ak.yelpcdn.com/bphoto/U-nZqK8D9pszaD_lq6hYtA/ms.jpg,Philadelphia,PA,http://www.yelp.com/biz/modern-eye-philadelphia,38,5,-75.1931595,39.9531208
430,"8899 University Center LnUniversity CitySan Diego, CA 92122","Richard A Harmetz, DDS",http://s3-media1.ak.yelpcdn.com/assets/2/www/img/924a6444ca6c/gfx/blank_biz_medium.gif,San Diego,CA,http://www.yelp.com/biz/richard-a-harmetz-dds-san-diego,2,5,-117.2280774,32.8700905
431,"3900 Chestnut StUniversity CityPhiladelphia, PA 19195",Hamilton Court Apartments,http://s3-media1.ak.yelpcdn.com/assets/2/www/img/924a6444ca6c/gfx/blank_biz_medium.gif,Philadelphia,PA,http://www.yelp.com/biz/hamilton-court-apartments-philadelphia,2,2,-75.2001318,39.9549304
432,"111 S 40th StUniversity CityPhiladelphia, PA 19104",Mizu,http://s3-media3.ak.yelpcdn.com/bphoto/ldiTAPVD_6lO8c4_lpWY9w/ms.jpg,Philadelphia,PA,http://www.yelp.com/biz/mizu-philadelphia,49,3,-75.2022328,39.9552752
433,"N 33rd and Arch StPowelton VillagePhiladelphia, PA 19104",KAMI philadelphia,http://s3-media3.ak.yelpcdn.com/bphoto/bZJB95_SWELXBs9DjVAikw/ms.jpg,Philadelphia,PA,http://www.yelp.com/biz/kami-philadelphia-philadelphia,3,5,-75.1890822,39.9576111
434,"3420 Sansom StUniversity CityPhiladelphia, PA 19104",White Dog Cafe,http://s3-media4.ak.yelpcdn.com/bphoto/UQdwKxgPwzU8jOPTpqbURg/ms.jpg,Philadelphia,PA,http://www.yelp.com/biz/white-dog-cafe-philadelphia-2,300,3.5,-75.1928887,39.9536476
435,"4040 Locust StUniversity CityPhiladelphia, PA 19104",Ramen Bar,http://s3-media3.ak.yelpcdn.com/bphoto/4M2CNms9jj1Gcifg76Cmdw/ms.jpg,Philadelphia,PA,http://www.yelp.com/biz/ramen-bar-philadelphia-3,26,3,-75.20476341,39.95310082
436,"Children's Hospital of Philadelphia34th St Civic Center BlvdUniversity CityPhiladelphia, PA 19104",Children's Hospital of Philadelphia Cafeteria,http://s3-media4.ak.yelpcdn.com/bphoto/A6Kf5J5_ta6ibPo9-LkO8g/ms.jpg,Philadelphia,PA,http://www.yelp.com/biz/childrens-hospital-of-philadelphia-cafeteria-philadelphia,5,3,-75.19547,39.9470831
437,"4101-19 Market StUniversity CityPhiladelphia, PA 19104",Pep Boys Automotive,http://s3-media3.ak.yelpcdn.com/bphoto/015WNxtV-AV9jvVOztpp2g/ms.jpg,Philadelphia,PA,http://www.yelp.com/biz/pep-boys-automotive-philadelphia-4,13,2,-75.2058097,39.9577866
438,"Reading Terminal Market12th & ArchUniversity CityPhiladelphia, PA 19176",Hershel's East Side Deli,http://s3-media3.ak.yelpcdn.com/bphoto/Ph7CHENzjNXqojwj7L8sKg/ms.jpg,Philadelphia,PA,http://www.yelp.com/biz/hershels-east-side-deli-philadelphia,140,4,-75.18316,39.95526
439,"3432 Sansom StUniversity CityPhiladelphia, PA 19104",Doc Magrogan's Oyster House,http://s3-media2.ak.yelpcdn.com/bphoto/1EHMfS5vnp4_WvT4oKVi2A/ms.jpg,Philadelphia,PA,http://www.yelp.com/biz/doc-magrogans-oyster-house-philadelphia,20,3,-75.1932666,39.9537091
440,"3943 Chestnut StUniversity CityPhiladelphia, PA 19104",Papa John's,http://s3-media1.ak.yelpcdn.com/assets/2/www/img/924a6444ca6c/gfx/blank_biz_medium.gif,Philadelphia,PA,http://www.yelp.com/biz/papa-johns-philadelphia-2,3,2.5,-75.2020731,39.9557602
441,"Powelton VillagePhiladelphia, PA 19104",Price Is Right Plumbing & Drain Cleaning,http://s3-media4.ak.yelpcdn.com/bphoto/_bIQICxdYtf5srkKubXN9g/ms.jpg,Philadelphia,PA,http://www.yelp.com/biz/price-is-right-plumbing-and-drain-cleaning-philadelphia,9,3,-75.1953934,39.9583587
442,"20 S 36th StUniversity CityPhiladelphia, PA 19104",Axis Cafe/Stratum Cafe,http://s3-media1.ak.yelpcdn.com/assets/2/www/img/924a6444ca6c/gfx/blank_biz_medium.gif,Philadelphia,PA,http://www.yelp.com/biz/axis-cafe-stratum-cafe-philadelphia,6,2.5,-75.194678,39.955264
443,"3801 Chestnut StUniversity CityPhiladelphia, PA 19104",Chili's Grill & Bar,http://s3-media2.ak.yelpcdn.com/bphoto/7Gyv1osW3cbvOYCZOv-2tw/ms.jpg,Philadelphia,PA,http://www.yelp.com/biz/chilis-grill-and-bar-philadelphia-3,24,3,-75.198948,39.955642
444,"4008 Spruce StUniversity CityPhiladelphia, PA 19104",University Pinball,http://s3-media1.ak.yelpcdn.com/bphoto/jlY_4f3ykKGq1Yf3rbMh-Q/ms.jpg,Philadelphia,PA,http://www.yelp.com/biz/university-pinball-philadelphia,17,4,-75.203551,39.9515529
445,"3700 Chestnut StUniversity CityPhiladelphia, PA 19104",Tabernacle United Church,http://s3-media1.ak.yelpcdn.com/bphoto/vwTTeYfWtIoTyLcgwFnMtA/ms.jpg,Philadelphia,PA,http://www.yelp.com/biz/tabernacle-united-church-philadelphia,2,4,-75.1965799,39.954833
446,"3426 Sansom StUniversity CityPhiladelphia, PA 19104",Saturn Club,http://s3-media1.ak.yelpcdn.com/bphoto/A5li_BZdmgmJJZHChla_iw/ms.jpg,Philadelphia,PA,http://www.yelp.com/biz/saturn-club-philadelphia,35,3,-75.1931188,39.9535501
447,"3408 Sansom StUniversity CityPhiladelphia, PA 19104",New Deck Tavern,http://s3-media1.ak.yelpcdn.com/bphoto/qNrHEs5mZrwg8EW4Vd4VvA/ms.jpg,Philadelphia,PA,http://www.yelp.com/biz/new-deck-tavern-philadelphia,174,3.5,-75.1926036,39.9536071
448,"37th St and Walnut StUniversity CityPhiladelphia, PA 19104",Kim's Oriental Food,http://s3-media1.ak.yelpcdn.com/bphoto/boYX8KGdHleIf1s9clvbcQ/ms.jpg,Philadelphia,PA,http://www.yelp.com/biz/kims-oriental-food-philadelphia,36,4,-75.19755363,39.95388214
449,"3401 Lancaster AvePowelton VillagePhiladelphia, PA 19104",Seven Eleven,http://s3-media3.ak.yelpcdn.com/bphoto/evtkKkVvYHC4lB2RvkOKng/ms.jpg,Philadelphia,PA,http://www.yelp.com/biz/seven-eleven-philadelphia,10,3,-75.19143,39.957658
450,"2955 Market StUniversity CityPhiladelphia, PA 19104",Cucina Italiana,http://s3-media4.ak.yelpcdn.com/bphoto/u7PTDDUmMUldPiS8_CRVVw/ms.jpg,Philadelphia,PA,http://www.yelp.com/biz/cucina-italiana-philadelphia,4,2.5,-75.185108,39.954622
451,"3505 Lancaster AvePowelton VillagePhiladelphia, PA 19104",Savas,http://s3-media4.ak.yelpcdn.com/bphoto/zvVjmkB8MrMuOc21f7-k1Q/ms.jpg,Philadelphia,PA,http://www.yelp.com/biz/savas-philadelphia,51,3.5,-75.1928662,39.9583142
452,"3535 Market StPowelton VillagePhiladelphia, PA 19104",Cafe Soleil,http://s3-media1.ak.yelpcdn.com/assets/2/www/img/924a6444ca6c/gfx/blank_biz_medium.gif,Philadelphia,PA,http://www.yelp.com/biz/cafe-soleil-philadelphia,5,5,-75.193911,39.956423
453,"8899 University Ctr LnUniversity CitySan Diego, CA 92122","Kincaid Stuart, MD",http://s3-media4.ak.yelpcdn.com/bphoto/CJKXsAy0eH9TdQt7YHcHgQ/ms.jpg,San Diego,CA,http://www.yelp.com/biz/kincaid-stuart-md-san-diego,8,1.5,-117.2280774,32.8700905
